"psite_id","Name","trancd","trancd_def","biocd","biocd_def","exists_yn","keeplyr_yn","lat","lon","Status","StatusCode","YearClosed","Names_Prior","Feedstock","Products","Species","City","State","latitude","GIS_Lat","longitude","GIS_Lon","type","County","Mill_Type","biosum_type","Facility"
244,"Big Valley Biomass Power/BVP P","1","Regular             ","2","Energy         ","N","N",41.1316757202148,-121.135704040527,"Idle",0,0,NA,NA,NA,NA,"Bieber","CA",41.132744,41.1316757202148,-121.137368,-121.135704040527,2,NA,NA,2,NA
245,"Blue Lake Power               ","1","Regular             ","2","Energy         ","N","N",40.8770523071289,-123.994094848633,"Idle",0,0,NA,NA,NA,NA,"Blue Lake","CA",40.877693,40.8770523071289,-123.994609,-123.994094848633,2,NA,NA,2,NA
246,"Burney Mountain Power         ","1","Regular             ","2","Energy         ","N","N",40.9095153808594,-121.639465332031,"Idle",0,0,NA,NA,NA,NA,"Burney","CA",40.909703,40.9095153808594,-121.639961,-121.639465332031,2,NA,NA,2,NA
247,"Delano Energy Co- Inc         ","1","Regular             ","2","Energy         ","N","N",35.7179412841797,-119.234703063965,"Idle",0,0,NA,NA,NA,NA,"Delano","CA",35.719097,35.7179412841797,-119.234588,-119.234703063965,2,NA,NA,2,NA
248,"DG Fairhaven                  ","1","Regular             ","2","Energy         ","N","N",40.7994995117188,-124.20369720459,"Idle",0,0,NA,NA,NA,NA,"Samoa","CA",40.79946,40.7994995117188,-124.20309,-124.20369720459,2,NA,NA,2,NA
249,"Imperial Valley Resource Recov","1","Regular             ","2","Energy         ","N","N",32.9060897827148,-115.510963439941,"Idle",0,0,NA,NA,NA,NA,"El Centro","CA",32.906602,32.9060897827148,-115.51372,-115.510963439941,2,NA,NA,2,NA
250,"Shasta Renewable              ","1","Regular             ","2","Energy         ","N","N",40.4739379882812,-122.327590942383,"Idle",0,0,NA,NA,NA,NA,"Anderson","CA",40.473227,40.4739379882812,-122.328937,-122.327590942383,2,NA,NA,2,NA
251,"Madera Power LLC              ","1","Regular             ","2","Energy         ","N","N",36.861198425293,-120.338996887207,"Idle",0,0,NA,NA,NA,NA,"Firebaugh","CA",36.861479,36.861198425293,-120.338865,-120.338996887207,2,NA,NA,2,NA
252,"Mendota Biomass Power Ltd.    ","1","Regular             ","2","Energy         ","N","N",36.7555084228516,-120.368217468262,"Idle",0,0,NA,NA,NA,NA,"Mendota","CA",36.755903,36.7555084228516,-120.365273,-120.368217468262,2,NA,NA,2,NA
253,"Mt. Lassen Power              ","1","Regular             ","2","Energy         ","N","N",40.2970657348633,-121.018486022949,"Idle",0,0,NA,NA,NA,NA,"Westwood","CA",40.296983,40.2970657348633,-121.018053,-121.018486022949,2,NA,NA,2,NA
254,"Pacific Oroville Power Inc.   ","1","Regular             ","2","Energy         ","N","N",39.4814300537109,-121.564697265625,"Idle",0,0,NA,NA,NA,NA,"Oroville","CA",39.480996,39.4814300537109,-121.565567,-121.564697265625,2,NA,NA,2,NA
256,"Sierra Power Corp.            ","1","Regular             ","2","Energy         ","N","N",35.9533882141113,-119.045455932617,"Idle",0,0,NA,NA,NA,NA,"Terra Bella","CA",35.953929,35.9533882141113,-119.046308,-119.045455932617,2,NA,NA,2,NA
257,"SPI Loyalton                  ","1","Regular             ","2","Energy         ","N","N",39.6700325012207,-120.239845275879,"Idle",0,0,NA,NA,NA,NA,"Loyalton","CA",39.669937,39.6700325012207,-120.239409,-120.239845275879,2,NA,NA,2,NA
258,"Tracy Biomass Plant           ","1","Regular             ","2","Energy         ","N","N",37.7209053039551,-121.488151550293,"Idle",0,0,NA,NA,NA,NA,"Tracy","CA",37.719987,37.7209053039551,-121.488451,-121.488151550293,2,NA,NA,2,NA
259,"Air Products Stockton         ","1","Regular             ","2","Energy         ","N","N",37.9133110046387,-121.262130737305,"Idle",0,0,NA,NA,NA,NA,"Stockton","CA",37.912473,37.9133110046387,-121.261706,-121.262130737305,2,NA,NA,2,NA
260,"Ortigalita Power Co.          ","1","Regular             ","2","Energy         ","N","N",37.3347282409668,-120.530334472656,"Idle",0,0,NA,NA,NA,NA,"Merced","CA",37.335114,37.3347282409668,-120.528724,-120.530334472656,2,NA,NA,2,NA
261,"West Biofuels                 ","1","Regular             ","2","Energy         ","N","N",38.7214202880859,-121.756973266602,"Idle",0,0,NA,NA,NA,NA,"Woodland","CA",38.721719,38.7214202880859,-121.7544,-121.756973266602,2,NA,NA,2,NA
283,"Dinuba Energy- Inc            ","1","Regular             ","2","Energy         ","N","N",36.5711250305176,-119.419906616211,"Idle",0,0,NA,NA,NA,NA,"Dinuba","CA",36.569581,36.5711250305176,-119.418984,-119.419906616211,2,NA,NA,2,NA
299,"Rough & Ready Power           ","1","Regular             ","2","Energy         ","N","N",42.1060676574707,-123.676658630371,"Idle",0,0,NA,NA,NA,NA,"Cave Junction","OR",42.106133,42.1060676574707,-123.677315,-123.676658630371,2,NA,NA,2,NA
300,"Buena Vista Biomass Power     ","1","Regular             ","2","Energy         ","N","N",38.2775001525879,-120.913345336914,"Idle",0,0,NA,NA,NA,NA,"Ione","CA",38.27792,38.2775001525879,-120.913763,-120.913345336914,2,NA,NA,2,NA
262,"Diamond Walnut                ","1","Regular             ","2","Energy         ","N","N",37.9508666992188,-121.25505065918,"Non-operational",0,0,NA,NA,NA,NA,"Stockton","CA",37.950083,37.9508666992188,-121.254484,-121.25505065918,2,NA,NA,2,NA
263,"Mesquite Lake Resource Recover","1","Regular             ","2","Energy         ","N","N",32.9043350219727,-115.510528564453,"Non-operational",0,0,NA,NA,NA,NA,"El Centro","CA",32.90381,32.9043350219727,-115.512373,-115.510528564453,2,NA,NA,2,NA
264,"Sierra Biomass (Auberry)      ","1","Regular             ","2","Energy         ","N","N",37.0650177001953,-119.491317749023,"Non-operational",0,0,NA,NA,NA,NA,"Auberry","CA",37.065354,37.0650177001953,-119.491147,-119.491317749023,2,NA,NA,2,NA
265,"Soledad Energy                ","1","Regular             ","2","Energy         ","N","N",36.4164581298828,-121.315055847168,"Non-operational",0,0,NA,NA,NA,NA,"Soledad","CA",36.416976,36.4164581298828,-121.315617,-121.315055847168,2,NA,NA,2,NA
267,"Susanville                    ","1","Regular             ","2","Energy         ","N","N",40.4073181152344,-120.644676208496,"Non-operational",0,0,NA,NA,NA,NA,"Susanville","CA",40.408256,40.4073181152344,-120.644821,-120.644676208496,2,NA,NA,2,NA
268,"Freshwater Pulp               ","1","Regular             ","2","Energy         ","N","N",40.8058586120605,-124.196296691895,"Non-operational",0,0,NA,NA,NA,NA,"Samoa","CA",40.805519,40.8058586120605,-124.195843,-124.196296691895,2,NA,NA,2,NA
269,"AES Delano                    ","1","Regular             ","2","Energy         ","N","N",35.7222709655762,-119.231452941895,"Non-Operational",0,0,NA,NA,NA,NA,"Delano","CA",35.721901,35.7222709655762,-119.233356,-119.231452941895,2,NA,NA,2,NA
270,"Liberty V Biofuels            ","1","Regular             ","2","Energy         ","N","N",35.6797866821289,-119.796485900879,"Non-Operational",0,0,NA,NA,NA,NA,"Lost Hills","CA",35.679797,35.6797866821289,-119.796498,-119.796485900879,2,NA,NA,2,NA
271,"Bull Moose Energy Otay Mesa Bi","1","Regular             ","2","Energy         ","N","N",32.5671043395996,-116.941787719727,"Non-Operational",0,0,NA,NA,NA,NA,"San Diego","CA",32.566906,32.5671043395996,-116.941888,-116.941787719727,2,NA,NA,2,NA
272,"Envirepel Fallbrook           ","1","Regular             ","2","Energy         ","N","N",33.3328475952148,-117.144386291504,"Non-Operational",0,0,NA,NA,NA,NA,"Fallbrook","CA",33.333935,33.3328475952148,-117.145164,-117.144386291504,2,NA,NA,2,NA
273,"Envirepel Ramona              ","1","Regular             ","2","Energy         ","N","N",33.0860290527344,-116.862869262695,"Non-Operational",0,0,NA,NA,NA,NA,"Ramona","CA",33.085519,33.0860290527344,-116.863258,-116.862869262695,2,NA,NA,2,NA
274,"Envirepel Vista               ","1","Regular             ","2","Energy         ","N","N",33.1476364135742,-117.235504150391,"Non-Operational",0,0,NA,NA,NA,NA,"Vista","CA",33.147989,33.1476364135742,-117.235388,-117.235504150391,2,NA,NA,2,NA
275,"Imperial Valley Biopower      ","1","Regular             ","2","Energy         ","N","N",32.9036407470703,-115.535621643066,"Non-Operational",0,0,NA,NA,NA,NA,"Brawley","CA",32.903407,32.9036407470703,-115.534379,-115.535621643066,2,NA,NA,2,NA
276,"Liberty 1 Biofuels Power      ","1","Regular             ","2","Energy         ","N","N",32.91259765625,-115.510391235352,"Non-Operational",0,0,NA,NA,NA,NA,"El Centro","CA",32.912743,32.91259765625,-115.510335,-115.510391235352,2,NA,NA,2,NA
277,"Wheelabrator No.4             ","1","Regular             ","2","Energy         ","N","N",40.4286308288574,-122.274597167969,"Non-Operational",0,0,NA,NA,NA,NA,"Cottonwood","CA",40.428435,40.4286308288574,-122.2769,-122.274597167969,2,NA,NA,2,NA
278,"Sonoma Green Energy           ","1","Regular             ","2","Energy         ","N","N",38.3017616271973,-122.75658416748,"Non-Operational",0,0,NA,NA,NA,NA,"Petaluma","CA",38.301876,38.3017616271973,-122.754976,-122.75658416748,2,NA,NA,2,NA
232,"Quincy Proposed Project       ","1","Regular             ","2","Energy         ","N","N",39.9364738464355,-120.946182250977,"Proposal",0,0,NA,NA,NA,NA,"Quincy","CA",39.936666,39.9364738464355,-120.946199,-120.946182250977,2,NA,NA,2,NA
309,"Rio Bravo Jasmin              ","1","Regular             ","2","Energy         ","N","N",35.741771697998,-119.050170898438,"Proposal",0,0,NA,NA,NA,NA,"Bakersfield","CA",35.741508,35.741771697998,-119.050911,-119.050170898438,2,NA,NA,2,NA
310,"Rio Bravo Poso                ","1","Regular             ","2","Energy         ","N","N",35.547924041748,-119.076393127441,"Proposal",0,0,NA,NA,NA,NA,"Bakersfield","CA",35.547497,35.547924041748,-119.075265,-119.076393127441,2,NA,NA,2,NA
311,"Devils Garden Conservation Cam","1","Regular             ","2","Energy         ","N","N",41.5230712890625,-120.670127868652,"Proposal",0,0,NA,NA,NA,NA,"Alturas","CA",41.523309,41.5230712890625,-120.66971,-120.670127868652,2,NA,NA,2,NA
312,"Trinity Conservation Camp Prop","1","Regular             ","2","Energy         ","N","N",40.7890510559082,-122.801872253418,"Proposal",0,0,NA,NA,NA,NA,"Lewiston","CA",40.78939,40.7890510559082,-122.802506,-122.801872253418,2,NA,NA,2,NA
313,"California Ethanol & Power LLC","1","Regular             ","2","Energy         ","N","N",32.9132194519043,-115.522636413574,"Proposal",0,0,NA,NA,NA,NA,"Brawley","CA",32.91631,32.9132194519043,-115.522232,-115.522636413574,2,NA,NA,2,NA
314,"Trinity River Lbr.            ","1","Regular             ","2","Energy         ","N","N",40.724723815918,-122.931091308594,"Proposal",0,0,NA,NA,NA,NA,"Weaverville","CA",40.72493,40.724723815918,-122.930638,-122.931091308594,2,NA,NA,2,NA
318,"Mariposa BioMAT Project       ","1","Regular             ","2","Energy         ","N","N",37.4848785400391,-119.966293334961,"Proposal",0,0,NA,NA,NA,NA,NA,"CA",37.48496616,37.4848785400391,-119.9662997,-119.966293334961,2,NA,NA,2,NA
320,"Round Valley BioMAT Project   ","1","Regular             ","2","Energy         ","N","N",39.8016624450684,-123.248977661133,"Proposal",0,0,NA,NA,NA,NA,NA,"CA",39.80247641,39.8016624450684,-123.2495589,-123.248977661133,2,NA,NA,2,NA
321,"Branscomb BioMAT Project      ","1","Regular             ","2","Energy         ","N","N",39.6546592712402,-123.624893188477,"Proposal",0,0,NA,NA,NA,NA,NA,"CA",39.65483903,39.6546592712402,-123.6251896,-123.624893188477,2,NA,NA,2,NA
105,"SPI Keystone Plant            ","1","Regular             ","2","Energy         ","Y","N",37.837947845459,-120.506568908691,"Open",1,0,"Sierra Pacific Industrie","Bark","Bark Products",NA,"Jamestown","CA",37.83790896,37.837947845459,-120.5063675,-120.506568908691,1,NA,"Bark Processor",2,NA
138,"United Bark Products          ","1","Regular             ","2","Energy         ","Y","N",39.6873970031738,-122.19669342041,"Open",1,0,NA,"Bark","Bark Products",NA,"Orland","CA",39.687296,39.6873970031738,-122.197715,-122.19669342041,1,NA,"Bark Processor",2,NA
158,"Lassen Forest Products        ","1","Regular             ","2","Energy         ","Y","N",40.1297988891602,-122.18798828125,"Open",1,0,NA,"Bark","Bark Products",NA,"Red Bluff","CA",40.12963114,40.1297988891602,-122.1878034,-122.18798828125,1,NA,"Bark Processor",2,NA
224,"Shasta Forest Products- Inc.  ","1","Regular             ","2","Energy         ","Y","N",41.7331581115723,-122.591567993164,"Open",1,0,NA,"Bark","Bark Products",NA,"Yreka","CA",41.732792,41.7331581115723,-122.591179,-122.591567993164,1,NA,"Bark Processor",2,NA
588,"Boise Cascade - La Grande     ","1","Regular             ","2","Energy         ","N","N",45.3343887329102,-118.085426330566,NA,1,0,NA,NA,NA,NA,"La Grande","OR",0,45.3343887329102,0,-118.085426330566,0,"Union","Biomass/Energy",2,"Combustion"
589,"Boise Cascade - Elgin         ","1","Regular             ","2","Energy         ","N","N",45.5629539489746,-117.933471679688,NA,1,0,NA,NA,NA,NA,"Elgin","OR",0,45.5629539489746,0,-117.933471679688,0,"Union","Biomass/Energy",2,"Combustion"
590,"Enterprise School District    ","1","Regular             ","2","Energy         ","N","N",45.4238014221191,-117.273162841797,NA,1,0,NA,NA,NA,NA,"Enterprise","OR",0,45.4238014221191,0,-117.273162841797,0,"Wallowa","Biomass/Energy",2,"Heat"
591,"Blue Mtn FP - Boardman        ","1","Regular             ","2","Energy         ","N","N",45.8441390991211,-119.696411132812,NA,1,0,NA,NA,NA,NA,"Pendleton","OR",0,45.8441390991211,0,-119.696411132812,0,"Umatilla","Biomass/Energy",2,"Densified"
592,"Integrated Biomass Resources  ","1","Regular             ","2","Energy         ","N","N",45.576099395752,-117.536743164062,NA,1,0,NA,NA,NA,NA,"Wallowa","OR",0,45.576099395752,0,-117.536743164062,0,"Wallowa","Biomass/Energy",2,"Densified"
593,"Elkhorn biomass               ","1","Regular             ","2","Energy         ","N","N",44.7784805297852,-117.841674804688,NA,1,0,NA,NA,NA,NA,"Baker City","OR",0,44.7784805297852,0,-117.841674804688,0,"Baker","Biomass/Energy",2,"construction"
594,"Lignetics of Idaho            ","1","Regular             ","2","Energy         ","N","N",48.3205223083496,-116.424423217773,NA,1,0,NA,NA,NA,NA,"Sandpoint","ID",0,48.3205223083496,0,-116.424423217773,0,"Bonner","Biomass/Energy",2,NA
595,"Evergreen Forests             ","1","Regular             ","2","Energy         ","N","N",44.9683227539062,-116.325889587402,NA,1,0,NA,NA,NA,NA,"New Meadows","ID",0,44.9683227539062,0,-116.325889587402,0,"Adams","Biomass/Energy",2,NA
596,"University of Idaho           ","1","Regular             ","2","Energy         ","N","N",46.723762512207,-116.998207092285,NA,1,0,NA,NA,NA,NA,"Moscow","ID",0,46.723762512207,0,-116.998207092285,0,"Latah","Biomass/Energy",2,NA
597,"Council Public Schools        ","1","Regular             ","2","Energy         ","N","N",44.6876792907715,-116.410873413086,NA,1,0,NA,NA,NA,NA,"Bonners Ferry","ID",0,44.6876792907715,0,-116.410873413086,0,"Bonner","Biomass/Energy",2,NA
598,"North Idaho Energy Logs       ","1","Regular             ","2","Energy         ","N","N",48.6840324401855,-116.203582763672,NA,1,0,NA,NA,NA,NA,"Moyie Springs","ID",0,48.6840324401855,0,-116.203582763672,0,"Boundary","Biomass/Energy",2,NA
599,"Darby Public Schools          ","1","Regular             ","2","Energy         ","N","N",46.0277671813965,-114.181060791016,NA,1,0,NA,NA,NA,NA,"Darby","MT",0,46.0277671813965,0,-114.181060791016,0,"Ravalli","Biomass/Energy",2,NA
600,"Victor Public School          ","1","Regular             ","2","Energy         ","N","N",46.4148406982422,-114.150199890137,NA,1,0,NA,NA,NA,NA,"Victor","MT",0,46.4148406982422,0,-114.150199890137,0,"Ravalli","Biomass/Energy",2,NA
601,"Milo Academy                  ","1","Regular             ","2","Energy         ","Y","N",42.9314002990723,-123.03540802002,NA,1,0,NA,NA,NA,NA,"Tiller","OR",0,42.9314002990723,0,-123.03540802002,0,"Douglas","Biomass/Energy",2,"Heat"
602,"Biomass One                   ","1","Regular             ","2","Energy         ","Y","N",42.4409942626953,-122.843231201172,NA,1,0,NA,NA,NA,NA,"White City","OR",0,42.4409942626953,0,-122.843231201172,0,"Jackson","Biomass/Energy",2,"Cogen"
603,"Cogen II- LLC                 ","1","Regular             ","2","Energy         ","Y","N",42.9599685668945,-123.35139465332,NA,1,0,NA,NA,NA,NA,"Riddle","OR",0,42.9599685668945,0,-123.35139465332,0,"Douglas","Biomass/Energy",2,"Cogen"
604,"Douglas Co FP                 ","1","Regular             ","2","Energy         ","Y","N",43.2939414978027,-123.361572265625,NA,1,0,NA,NA,NA,NA,"Winchester","OR",0,43.2939414978027,0,-123.361572265625,0,"Douglas","Biomass/Energy",2,"Cogen"
605,"Roseburg FP - Dillard         ","1","Regular             ","2","Energy         ","Y","N",43.1024780273438,-123.422485351562,NA,1,0,NA,NA,NA,NA,"Dillard","OR",0,43.1024780273438,0,-123.422485351562,0,"Douglas","Biomass/Energy",2,"Cogen"
606,"Cogen Co- LLC                 ","1","Regular             ","2","Energy         ","N","N",44.4772911071777,-118.713066101074,NA,1,0,NA,NA,NA,NA,"Prarie City","OR",0,44.4772911071777,0,-118.713066101074,0,"Grant","Biomass/Energy",2,"Cogen"
607,"Freres Lumber Co - Cogen      ","1","Regular             ","2","Energy         ","N","N",44.7798538208008,-122.603996276855,NA,1,0,NA,NA,NA,NA,"Lyons","OR",0,44.7798538208008,0,-122.603996276855,0,"Linn","Biomass/Energy",2,"Cogen"
608,"Interfor Pacific -Gilchrist   ","1","Regular             ","2","Energy         ","Y","N",43.4831047058105,-121.696243286133,NA,1,0,NA,NA,NA,NA,"Gilchrist","OR",0,43.4831047058105,0,-121.696243286133,0,"Klamath","Biomass/Energy",2,"Cogen"
609,"Rough & Ready Lumber          ","1","Regular             ","2","Energy         ","Y","N",42.1744804382324,-123.637184143066,NA,1,0,NA,NA,NA,NA,"Cave Junction","OR",0,42.1744804382324,0,-123.637184143066,0,"Josephine","Biomass/Energy",2,"Cogen"
610,"Heppner Power Plant           ","1","Regular             ","2","Energy         ","N","N",45.3746948242188,-119.579513549805,NA,1,0,NA,NA,NA,NA,"Heppner","OR",0,45.3746948242188,0,-119.579513549805,0,"Morrow","Biomass/Energy",2,"Cogen"
611,"Swanson Group Mfg - Roseburg  ","1","Regular             ","2","Energy         ","Y","N",43.1847724914551,-123.369804382324,NA,1,0,NA,NA,NA,NA,"Roseburg","OR",0,43.1847724914551,0,-123.369804382324,0,"Douglas","Biomass/Energy",2,"Cogen"
612,"Blue Heron Paper Co           ","1","Regular             ","2","Energy         ","N","N",45.3430557250977,-122.612152099609,NA,1,0,NA,NA,NA,NA,"Oregon City","OR",0,45.3430557250977,0,-122.612152099609,0,"Clackamas","Biomass/Energy",2,"Combustion"
613,"Collins Co Lakeview Sawmill   ","1","Regular             ","2","Energy         ","Y","N",42.2035827636719,-120.355461120605,NA,1,0,NA,NA,NA,NA,"Lakeview","OR",0,42.2035827636719,0,-120.355461120605,0,"Lake","Biomass/Energy",2,"Combustion"
614,"Columbia Forest Products      ","1","Regular             ","2","Energy         ","Y","N",42.2496376037598,-121.81510925293,NA,1,0,NA,NA,NA,NA,"Klamath Falls","OR",0,42.2496376037598,0,-121.81510925293,0,"Klamath","Biomass/Energy",2,"Combustion"
615,"Frank Lumber Co               ","1","Regular             ","2","Energy         ","N","N",44.7460060119629,-122.499473571777,NA,1,0,NA,NA,NA,NA,"Mill City","OR",0,44.7460060119629,0,-122.499473571777,0,"Linn","Biomass/Energy",2,"Combustion"
616,"Malheur Lumber                ","1","Regular             ","2","Energy         ","N","N",44.4171295166016,-118.946563720703,NA,1,0,NA,NA,NA,NA,"John Day","OR",0,44.4171295166016,0,-118.946563720703,0,"Grant","Biomass/Energy",2,"Combustion"
617,"Oregon Industrial Lumber Prod ","1","Regular             ","2","Energy         ","N","N",44.0642547607422,-122.970016479492,NA,1,0,NA,NA,NA,NA,"Springfield","OR",0,44.0642547607422,0,-122.970016479492,0,"Lane","Biomass/Energy",2,"Combustion"
618,"Pacific Wood Laminates        ","1","Regular             ","2","Energy         ","N","N",42.0510292053223,-124.288497924805,NA,1,0,NA,NA,NA,NA,"Brookings","OR",0,42.0510292053223,0,-124.288497924805,0,"Curry","Biomass/Energy",2,"Combustion"
619,"Panel Products LLC            ","1","Regular             ","2","Energy         ","N","N",42.4193801879883,-123.158241271973,NA,1,0,NA,NA,NA,NA,"Rogue River","OR",0,42.4193801879883,0,-123.158241271973,0,"Jackson","Biomass/Energy",2,"Combustion"
620,"Roseburg FP - Coquille        ","1","Regular             ","2","Energy         ","N","N",43.1786689758301,-124.216934204102,NA,1,0,NA,NA,NA,NA,"Coquille","OR",0,43.1786689758301,0,-124.216934204102,0,"Coos","Biomass/Energy",2,"Combustion"
621,"Swanson Group Mfg - Glendale  ","1","Regular             ","2","Energy         ","N","N",42.7353668212891,-123.419006347656,NA,1,0,NA,NA,NA,NA,"Glendale","OR",0,42.7353668212891,0,-123.419006347656,0,"Douglas","Biomass/Energy",2,"Combustion"
622,"Boise Cascade - Medford       ","1","Regular             ","2","Energy         ","N","N",42.3543167114258,-122.90047454834,NA,1,0,NA,NA,NA,NA,"Medford","OR",0,42.3543167114258,0,-122.90047454834,0,"Jackson","Biomass/Energy",2,"Cogen"
623,"Prineville Sawmill Company    ","1","Regular             ","2","Energy         ","N","N",44.3483772277832,-120.89289855957,NA,1,0,NA,NA,NA,NA,"Prineville","OR",0,44.3483772277832,0,-120.89289855957,0,"Crook","Biomass/Energy",2,"Combustion"
624,"Harney District Hospital      ","1","Regular             ","2","Energy         ","N","N",43.5889434814453,-119.064636230469,NA,1,0,NA,NA,NA,NA,"Burns","OR",0,43.5889434814453,0,-119.064636230469,0,"Harney","Biomass/Energy",2,"Heat"
625,"Bear Mtn FP - Cascade Locks   ","1","Regular             ","2","Energy         ","N","N",45.665454864502,-121.89094543457,NA,1,0,NA,NA,NA,NA,"Cascade Locks","OR",0,45.665454864502,0,-121.89094543457,0,"Hood River","Biomass/Energy",2,"Densified"
626,"Warm Springs Forest Products  ","1","Regular             ","2","Energy         ","N","N",44.7679748535156,-121.283615112305,NA,1,0,NA,NA,NA,NA,"Warm Springs","OR",0,44.7679748535156,0,-121.283615112305,0,"Wasco","Biomass/Energy",2,"Cogen"
627,"Weyerhaeuser - Foster         ","1","Regular             ","2","Energy         ","N","N",44.4067001342773,-122.669708251953,NA,1,0,NA,NA,NA,NA,"Foster","OR",0,44.4067001342773,0,-122.669708251953,0,"Linn","Biomass/Energy",2,"Combustion"
628,"Jasper Wood Products          ","1","Regular             ","2","Energy         ","N","N",43.9777374267578,-122.878799438477,NA,1,0,NA,NA,NA,NA,"Jasper","OR",0,43.9777374267578,0,-122.878799438477,0,"Lane","Biomass/Energy",2,"Operating"
629,"Pacific Pellet- LCC           ","1","Regular             ","2","Energy         ","N","N",44.2765464782715,-121.174331665039,NA,1,0,NA,NA,NA,NA,"Redmond","OR",0,44.2765464782715,0,-121.174331665039,0,"Deschutes","Biomass/Energy",2,"Operating"
630,"Sierra Pacific Ind.           ","1","Regular             ","2","Energy         ","N","N",46.97265625,-123.773551940918,NA,1,0,NA,NA,NA,NA,"Aberdeen","WA",0,46.97265625,0,-123.773551940918,0,"Grays Harbor","Biomass/Energy",2,NA
631,"SDS Lumber & Plywood          ","1","Regular             ","2","Energy         ","N","N",45.7148704528809,-121.468421936035,NA,1,0,NA,NA,NA,NA,"Bingen","WA",0,45.7148704528809,0,-121.468421936035,0,"Klickitat","Biomass/Energy",2,NA
632,"Georgia-Pacific Corp.         ","1","Regular             ","2","Energy         ","N","N",45.5825271606445,-122.413024902344,NA,1,0,NA,NA,NA,NA,"Camas","WA",0,45.5825271606445,0,-122.413024902344,0,"Clark","Biomass/Energy",2,NA
633,"Hampton Lumber                ","1","Regular             ","2","Energy         ","N","N",48.2699394226074,-121.598014831543,NA,1,0,NA,NA,NA,NA,"Darrington","WA",0,48.2699394226074,0,-121.598014831543,0,"Snohomish","Biomass/Energy",2,NA
634,"Kimberly-Clark Corp.          ","1","Regular             ","2","Energy         ","N","N",47.9833335876465,-122.21736907959,NA,1,0,NA,NA,NA,NA,"Everett","WA",0,47.9833335876465,0,-122.21736907959,0,"Snohomish","Biomass/Energy",2,NA
635,"Avista Corp.                  ","1","Regular             ","2","Energy         ","N","N",48.6202545166016,-118.109321594238,NA,1,0,NA,NA,NA,NA,"Kettle Falls","WA",0,48.6202545166016,0,-118.109321594238,0,"Stevens","Biomass/Energy",2,NA
636,"Sierra Pacific Ind.           ","1","Regular             ","2","Energy         ","N","N",48.4578819274902,-122.432243347168,NA,1,0,NA,NA,NA,NA,"Mt. Vernon","WA",0,48.4578819274902,0,-122.432243347168,0,"Skagit","Biomass/Energy",2,NA
637,"Port Townsend Paper Corp.     ","1","Regular             ","2","Energy         ","N","N",48.0942077636719,-122.799240112305,NA,1,0,NA,NA,NA,NA,"Port Townsend","WA",0,48.0942077636719,0,-122.799240112305,0,"Jefferson","Biomass/Energy",2,NA
638,"Seattle Steam                 ","1","Regular             ","2","Energy         ","N","N",47.6073379516602,-122.339538574219,NA,1,0,NA,NA,NA,NA,"Seattle","WA",0,47.6073379516602,0,-122.339538574219,0,"King","Biomass/Energy",2,NA
639,"Simpson Tacoma Kraft Co.      ","1","Regular             ","2","Energy         ","N","N",47.2653999328613,-122.427833557129,NA,1,0,NA,NA,NA,NA,"Tacoma","WA",0,47.2653999328613,0,-122.427833557129,0,"Pierce","Biomass/Energy",2,NA
119,"SierraPine Martell Particleboa","1","Regular             ","2","Energy         ","Y","N",38.379825592041,-120.79817199707,"Open",1,0,"Sierra Pine Ltd","Sawdust / Shavings / Chipa","Particleboard",NA,"Martell","CA",38.379883,38.379825592041,-120.798731,-120.79817199707,1,NA,"Composite Panel",2,NA
127,"SierraPine Medford MDF        ","1","Regular             ","2","Energy         ","Y","N",42.347225189209,-122.890022277832,"Open",1,0,NA,"Sawdust/ Shavings/ Chips","MDF",NA,"Medford","OR",42.34711,42.347225189209,-122.889474,-122.890022277832,1,NA,"Composite Panel",2,NA
60,"Hambro Forest Products Particl","1","Regular             ","2","Energy         ","N","N",41.7532081604004,-124.174842834473,"Closed",0,2012,"Hambro Forest Products- Inc.","Chips- Shavings- Sawdust","Particleboard",NA,"Crescent City","CA",41.75348006,41.7532081604004,-124.1753922,-124.174842834473,1,NA,"Composite Panel",2,NA
17,"Humboldt Flakeboard Particle B","1","Regular             ","2","Energy         ","N","N",40.899585723877,-124.075798034668,"Liquidated",0,0,"Humboldt Flakeboard Panels","Chips","Particleboard",NA,"Arcata","CA",40.899619,40.899585723877,-124.075427,-124.075798034668,1,NA,"Composite Panel",2,NA
166,"SierraPine Rocklin MDF        ","1","Regular             ","2","Energy         ","N","N",38.8020401000977,-121.217185974121,"Liquidated",0,0,"Sierra Pine Ltd","Sawdust / Shavings / Chips","MDF",NA,"Rocklin","CA",38.801777,38.8020401000977,-121.218444,-121.217185974121,1,NA,"Composite Panel",2,NA
323,"Elk City                      ","1","Regular             ","1","Merchantable   ","N","N",45.8985252380371,-115.468566894531,NA,1,0,NA,NA,NA,NA,"Elk City","ID",0,45.8985252380371,0,-115.468566894531,0,"Idaho","Merch",1,NA
324,"St. Maries                    ","1","Regular             ","1","Merchantable   ","N","N",47.3072814941406,-116.555732727051,NA,1,0,NA,NA,NA,NA,"St. Maries","ID",0,47.3072814941406,0,-116.555732727051,0,"Benewah","Merch",1,NA
325,"Priest River                  ","1","Regular             ","1","Merchantable   ","N","N",48.2140922546387,-116.90372467041,NA,1,0,NA,NA,NA,NA,"Priest River","ID",0,48.2140922546387,0,-116.90372467041,0,"Bonner","Merch",1,NA
326,"Orofino                       ","1","Regular             ","1","Merchantable   ","N","N",46.5259246826172,-116.249031066895,NA,1,0,NA,NA,NA,NA,"Orofino","ID",0,46.5259246826172,0,-116.249031066895,0,"Clearwater","Merch",1,NA
327,"Ovid                          ","1","Regular             ","1","Merchantable   ","N","N",42.2808418273926,-111.403755187988,NA,1,0,NA,NA,NA,NA,"Ovid","ID",0,42.2808418273926,0,-111.403755187988,0,"Bear Lake","Merch",1,NA
328,"Bonners Ferry                 ","1","Regular             ","1","Merchantable   ","N","N",48.6934051513672,-116.374267578125,NA,1,0,NA,NA,NA,NA,"Bonners Ferry","ID",0,48.6934051513672,0,-116.374267578125,0,"Boundary","Merch",1,NA
329,"Plummer                       ","1","Regular             ","1","Merchantable   ","N","N",47.3373184204102,-116.923767089844,NA,1,0,NA,NA,NA,NA,"Plummer","ID",0,47.3373184204102,0,-116.923767089844,0,"Benewah","Merch",1,NA
330,"Kamiah                        ","1","Regular             ","1","Merchantable   ","N","N",46.2787780761719,-116.020034790039,NA,1,0,NA,NA,NA,NA,"Kamiah","ID",0,46.2787780761719,0,-116.020034790039,0,"Idaho","Merch",1,NA
331,"Samuels                       ","1","Regular             ","1","Merchantable   ","N","N",48.2621612548828,-116.59147644043,NA,1,0,NA,NA,NA,NA,"Samuels","ID",0,48.2621612548828,0,-116.59147644043,0,"Bonner","Merch",1,NA
332,"Post Falls                    ","1","Regular             ","1","Merchantable   ","N","N",47.7593727111816,-116.930297851562,NA,1,0,NA,NA,NA,NA,"Post Falls","ID",0,47.7593727111816,0,-116.930297851562,0,"Kootenai","Merch",1,NA
333,"Princeton                     ","1","Regular             ","1","Merchantable   ","N","N",46.9127044677734,-116.799789428711,NA,1,0,NA,NA,NA,NA,"Princeton","ID",0,46.9127044677734,0,-116.799789428711,0,"Latah","Merch",1,NA
334,"New Meadows                   ","1","Regular             ","1","Merchantable   ","N","N",44.971435546875,-116.221641540527,NA,1,0,NA,NA,NA,NA,"New Meadows","ID",0,44.971435546875,0,-116.221641540527,0,"Adams","Merch",1,NA
335,"Athol                         ","1","Regular             ","1","Merchantable   ","N","N",47.9468955993652,-116.692497253418,NA,1,0,NA,NA,NA,NA,"Athol","ID",0,47.9468955993652,0,-116.692497253418,0,"Kootenai","Merch",1,NA
336,"Moyie Springs                 ","1","Regular             ","1","Merchantable   ","N","N",48.7316284179688,-116.17064666748,NA,1,0,NA,NA,NA,NA,"Moyie Springs","ID",0,48.7316284179688,0,-116.17064666748,0,"Boundary","Merch",1,NA
337,"Kingston                      ","1","Regular             ","1","Merchantable   ","N","N",47.5621147155762,-116.264472961426,NA,1,0,NA,NA,NA,NA,"Kingston","ID",0,47.5621147155762,0,-116.264472961426,0,"Shoshone","Merch",1,NA
338,"Lewiston                      ","1","Regular             ","1","Merchantable   ","N","N",46.4234046936035,-116.961051940918,NA,1,0,NA,NA,NA,NA,"Lewiston","ID",0,46.4234046936035,0,-116.961051940918,0,"Nez Perce","Merch",1,NA
339,"Laclede                       ","1","Regular             ","1","Merchantable   ","N","N",48.1976013183594,-116.730331420898,NA,1,0,NA,NA,NA,NA,"Laclede","ID",0,48.1976013183594,0,-116.730331420898,0,"Bonner","Merch",1,NA
340,"Cataldo                       ","1","Regular             ","1","Merchantable   ","N","N",47.5640258789062,-116.438003540039,NA,1,0,NA,NA,NA,NA,"Cataldo","ID",0,47.5640258789062,0,-116.438003540039,0,"Kootenai","Merch",1,NA
341,"Coeur d'Alene                 ","1","Regular             ","1","Merchantable   ","N","N",47.6422233581543,-116.718719482422,NA,1,0,NA,NA,NA,NA,"Coeur d'Alene","ID",0,47.6422233581543,0,-116.718719482422,0,"Kootenai","Merch",1,NA
342,"Salmon                        ","1","Regular             ","1","Merchantable   ","N","N",45.1490592956543,-113.874351501465,NA,1,0,NA,NA,NA,NA,"Salmon","ID",0,45.1490592956543,0,-113.874351501465,0,"Lemhi","Merch",1,NA
343,"Parma                         ","1","Regular             ","1","Merchantable   ","N","N",43.8179588317871,-116.977607727051,NA,1,0,NA,NA,NA,NA,"Parma","ID",0,43.8179588317871,0,-116.977607727051,0,"Canyon","Merch",1,NA
344,"Driggs                        ","1","Regular             ","1","Merchantable   ","N","N",43.6985244750977,-111.10033416748,NA,1,0,NA,NA,NA,NA,"Driggs","ID",0,43.6985244750977,0,-111.10033416748,0,"Teton","Merch",1,NA
345,"Hayden Lake                   ","1","Regular             ","1","Merchantable   ","N","N",47.7963829040527,-116.69945526123,NA,1,0,NA,NA,NA,NA,"Hayden Lake","ID",0,47.7963829040527,0,-116.69945526123,0,"Kootenai","Merch",1,NA
346,"Sandpoint                     ","1","Regular             ","1","Merchantable   ","N","N",48.3781471252441,-116.518203735352,NA,1,0,NA,NA,NA,NA,"Sandpoint","ID",0,48.3781471252441,0,-116.518203735352,0,"Bonner","Merch",1,NA
347,"Kooskia                       ","1","Regular             ","1","Merchantable   ","N","N",46.1683616638184,-115.950508117676,NA,1,0,NA,NA,NA,NA,"Kooskia","ID",0,46.1683616638184,0,-115.950508117676,0,"Idaho","Merch",1,NA
348,"Troy                          ","1","Regular             ","1","Merchantable   ","N","N",46.7321586608887,-116.740493774414,NA,1,0,NA,NA,NA,NA,"Troy","ID",0,46.7321586608887,0,-116.740493774414,0,"Latah","Merch",1,NA
349,"Weippe                        ","1","Regular             ","1","Merchantable   ","N","N",46.4254531860352,-115.851577758789,NA,1,0,NA,NA,NA,NA,"Weippe","ID",0,46.4254531860352,0,-115.851577758789,0,"Clearwater","Merch",1,NA
350,"Fernwood                      ","1","Regular             ","1","Merchantable   ","N","N",47.115535736084,-116.353744506836,NA,1,0,NA,NA,NA,NA,"Fernwood","ID",0,47.115535736084,0,-116.353744506836,0,"Benewah","Merch",1,NA
351,"Naples                        ","1","Regular             ","1","Merchantable   ","N","N",48.5482711791992,-116.374313354492,NA,1,0,NA,NA,NA,NA,"Naples","ID",0,48.5482711791992,0,-116.374313354492,0,"Boundary","Merch",1,NA
352,"Horseshoe Bend                ","1","Regular             ","1","Merchantable   ","N","N",43.9235191345215,-116.181282043457,NA,1,0,NA,NA,NA,NA,"Horseshoe Bend","ID",0,43.9235191345215,0,-116.181282043457,0,"Boise","Merch",1,NA
353,"White Bird                    ","1","Regular             ","1","Merchantable   ","N","N",45.7495536804199,-116.290878295898,NA,1,0,NA,NA,NA,NA,"White Bird","ID",0,45.7495536804199,0,-116.290878295898,0,"Idaho","Merch",1,NA
354,"Tuttle                        ","1","Regular             ","1","Merchantable   ","N","N",42.8679733276367,-114.752716064453,NA,1,0,NA,NA,NA,NA,"Tuttle","ID",0,42.8679733276367,0,-114.752716064453,0,"Gooding","Merch",1,NA
355,"Grangeville                   ","1","Regular             ","1","Merchantable   ","N","N",45.9298133850098,-116.1162109375,NA,1,0,NA,NA,NA,NA,"Grangeville","ID",0,45.9298133850098,0,-116.1162109375,0,"Idaho","Merch",1,NA
356,"St. Anthony                   ","1","Regular             ","1","Merchantable   ","N","N",43.99609375,-111.67658996582,NA,1,0,NA,NA,NA,NA,"St. Anthony","ID",0,43.99609375,0,-111.67658996582,0,"Fremont","Merch",1,NA
357,"Kuna                          ","1","Regular             ","1","Merchantable   ","N","N",43.4869270324707,-116.416801452637,NA,1,0,NA,NA,NA,NA,"Kuna","ID",0,43.4869270324707,0,-116.416801452637,0,"Ada","Merch",1,NA
358,"Idaho City                    ","1","Regular             ","1","Merchantable   ","N","N",43.8177719116211,-115.812660217285,NA,1,0,NA,NA,NA,NA,"Idaho City","ID",0,43.8177719116211,0,-115.812660217285,0,"Boise","Merch",1,NA
359,"Garden Valley                 ","1","Regular             ","1","Merchantable   ","N","N",44.0891876220703,-115.950546264648,NA,1,0,NA,NA,NA,NA,"Garden Valley","ID",0,44.0891876220703,0,-115.950546264648,0,"Boise","Merch",1,NA
360,"Wayan                         ","1","Regular             ","1","Merchantable   ","N","N",42.9700088500977,-111.37166595459,NA,1,0,NA,NA,NA,NA,"Wayan","ID",0,42.9700088500977,0,-111.37166595459,0,"Caribou","Merch",1,NA
361,"Bovill                        ","1","Regular             ","1","Merchantable   ","N","N",46.8540458679199,-116.389152526855,NA,1,0,NA,NA,NA,NA,"Bovill","ID",0,46.8540458679199,0,-116.389152526855,0,"Latah","Merch",1,NA
362,"Northfork                     ","1","Regular             ","1","Merchantable   ","N","N",45.4058685302734,-113.993240356445,NA,1,0,NA,NA,NA,NA,"Northfork","ID",0,45.4058685302734,0,-113.993240356445,0,"Lemhi","Merch",1,NA
363,"Afton                         ","1","Regular             ","1","Merchantable   ","N","N",42.6853408813477,-111.000839233398,NA,1,0,NA,NA,NA,NA,"Afton","WY",0,42.6853408813477,0,-111.000839233398,0,"Lincoln","Merch",1,NA
364,"Freedom                       ","1","Regular             ","1","Merchantable   ","N","N",42.9758377075195,-111.012107849121,NA,1,0,NA,NA,NA,NA,"Freedom","WY",0,42.9758377075195,0,-111.012107849121,0,"Lincoln","Merch",1,NA
365,"Thayne                        ","1","Regular             ","1","Merchantable   ","N","N",42.924144744873,-111.004516601562,NA,1,0,NA,NA,NA,NA,"Thayne","WY",0,42.924144744873,0,-111.004516601562,0,"Lincoln","Merch",1,NA
366,"Condon                        ","1","Regular             ","1","Merchantable   ","N","N",47.5490875244141,-113.732681274414,NA,1,0,NA,NA,NA,NA,"Condon","MT",0,47.5490875244141,0,-113.732681274414,0,"Missoula","Merch",1,NA
367,"Great Falls                   ","1","Regular             ","1","Merchantable   ","N","N",47.1266555786133,-111.410995483398,NA,1,0,NA,NA,NA,NA,"Great Falls","MT",0,47.1266555786133,0,-111.410995483398,0,"Cascade","Merch",1,NA
368,"Livingston                    ","1","Regular             ","1","Merchantable   ","N","N",45.6344299316406,-110.576133728027,NA,1,0,NA,NA,NA,NA,"Livingston","MT",0,45.6344299316406,0,-110.576133728027,0,"Park","Merch",1,NA
369,"Helena                        ","1","Regular             ","1","Merchantable   ","N","N",46.7022705078125,-112.063743591309,NA,1,0,NA,NA,NA,NA,"Helena","MT",0,46.7022705078125,0,-112.063743591309,0,"Lewis and Clark","Merch",1,NA
370,"Columbia Falls                ","1","Regular             ","1","Merchantable   ","N","N",48.3666687011719,-114.145355224609,NA,1,0,NA,NA,NA,NA,"Columbia Falls","MT",0,48.3666687011719,0,-114.145355224609,0,"Flathead","Merch",1,NA
371,"Clancy                        ","1","Regular             ","1","Merchantable   ","N","N",46.4858055114746,-111.997421264648,NA,1,0,NA,NA,NA,NA,"Clancy","MT",0,46.4858055114746,0,-111.997421264648,0,"Jefferson","Merch",1,NA
372,"Reedpoint                     ","1","Regular             ","1","Merchantable   ","N","N",45.7048873901367,-109.545806884766,NA,1,0,NA,NA,NA,NA,"Reedpoint","MT",0,45.7048873901367,0,-109.545806884766,0,"Stillwater","Merch",1,NA
373,"Hot Springs                   ","1","Regular             ","1","Merchantable   ","N","N",47.7053871154785,-114.626136779785,NA,1,0,NA,NA,NA,NA,"Hot Springs","MT",0,47.7053871154785,0,-114.626136779785,0,"Sanders","Merch",1,NA
374,"Lincoln                       ","1","Regular             ","1","Merchantable   ","N","N",46.9665946960449,-112.580505371094,NA,1,0,NA,NA,NA,NA,"Lincoln","MT",0,46.9665946960449,0,-112.580505371094,0,"Lewis and Clark","Merch",1,NA
375,"Kila                          ","1","Regular             ","1","Merchantable   ","N","N",48.0693244934082,-114.435188293457,NA,1,0,NA,NA,NA,NA,"Kila","MT",0,48.0693244934082,0,-114.435188293457,0,"Flathead","Merch",1,NA
376,"Belt                          ","1","Regular             ","1","Merchantable   ","N","N",47.3955726623535,-110.952217102051,NA,1,0,NA,NA,NA,NA,"Belt","MT",0,47.3955726623535,0,-110.952217102051,0,"Cascade","Merch",1,NA
377,"Alberton                      ","1","Regular             ","1","Merchantable   ","N","N",46.9584732055664,-114.671768188477,NA,1,0,NA,NA,NA,NA,"Alberton","MT",0,46.9584732055664,0,-114.671768188477,0,"Mineral","Merch",1,NA
378,"Bonner                        ","1","Regular             ","1","Merchantable   ","N","N",46.8754692077637,-113.858734130859,NA,1,0,NA,NA,NA,NA,"Bonner","MT",0,46.8754692077637,0,-113.858734130859,0,"Missoula","Merch",1,NA
379,"Olney                         ","1","Regular             ","1","Merchantable   ","N","N",48.549259185791,-114.57576751709,NA,1,0,NA,NA,NA,NA,"Olney","MT",0,48.549259185791,0,-114.57576751709,0,"Flathead","Merch",1,NA
380,"Hamilton                      ","1","Regular             ","1","Merchantable   ","N","N",46.1113586425781,-114.180587768555,NA,1,0,NA,NA,NA,NA,"Hamilton","MT",0,46.1113586425781,0,-114.180587768555,0,"Ravalli","Merch",1,NA
381,"Greenough                     ","1","Regular             ","1","Merchantable   ","N","N",47.024528503418,-113.30305480957,NA,1,0,NA,NA,NA,NA,"Greenough","MT",0,47.024528503418,0,-113.30305480957,0,"Missoula","Merch",1,NA
382,"Hall                          ","1","Regular             ","1","Merchantable   ","N","N",46.5854644775391,-113.195915222168,NA,1,0,NA,NA,NA,NA,"Hall","MT",0,46.5854644775391,0,-113.195915222168,0,"Granite","Merch",1,NA
383,"Bigfork                       ","1","Regular             ","1","Merchantable   ","N","N",48.0689086914062,-114.00545501709,NA,1,0,NA,NA,NA,NA,"Bigfork","MT",0,48.0689086914062,0,-114.00545501709,0,"Flathead","Merch",1,NA
384,"Clinton                       ","1","Regular             ","1","Merchantable   ","N","N",46.7276077270508,-113.668273925781,NA,1,0,NA,NA,NA,NA,"Clinton","MT",0,46.7276077270508,0,-113.668273925781,0,"Missoula","Merch",1,NA
385,"Florence                      ","1","Regular             ","1","Merchantable   ","N","N",46.6436576843262,-114.040351867676,NA,1,0,NA,NA,NA,NA,"Florence","MT",0,46.6436576843262,0,-114.040351867676,0,"Ravalli","Merch",1,NA
386,"Thompson Falls                ","1","Regular             ","1","Merchantable   ","N","N",47.5829200744629,-115.296607971191,NA,1,0,NA,NA,NA,NA,"Thompson Falls","MT",0,47.5829200744629,0,-115.296607971191,0,"Sanders","Merch",1,NA
387,"Grass Range                   ","1","Regular             ","1","Merchantable   ","N","N",46.9890251159668,-108.783813476562,NA,1,0,NA,NA,NA,NA,"Grass Range","MT",0,46.9890251159668,0,-108.783813476562,0,"Fergus","Merch",1,NA
388,"Roundup                       ","1","Regular             ","1","Merchantable   ","N","N",46.4398918151855,-108.55655670166,NA,1,0,NA,NA,NA,NA,"Roundup","MT",0,46.4398918151855,0,-108.55655670166,0,"Musselshell","Merch",1,NA
389,"Frenchtown                    ","1","Regular             ","1","Merchantable   ","N","N",47.0340232849121,-114.271820068359,NA,1,0,NA,NA,NA,NA,"Frenchtown","MT",0,47.0340232849121,0,-114.271820068359,0,"Missoula","Merch",1,NA
390,"Philipsburg                   ","1","Regular             ","1","Merchantable   ","N","N",46.2663536071777,-113.331901550293,NA,1,0,NA,NA,NA,NA,"Philipsburg","MT",0,46.2663536071777,0,-113.331901550293,0,"Granite","Merch",1,NA
391,"Lewistown                     ","1","Regular             ","1","Merchantable   ","N","N",47.0575218200684,-109.439987182617,NA,1,0,NA,NA,NA,NA,"Lewistown","MT",0,47.0575218200684,0,-109.439987182617,0,"Fergus","Merch",1,NA
392,"West Glacier                  ","1","Regular             ","1","Merchantable   ","N","N",48.4921340942383,-113.977912902832,NA,1,0,NA,NA,NA,NA,"West Glacier","MT",0,48.4921340942383,0,-113.977912902832,0,"Flathead","Merch",1,NA
393,"St. Ignatius                  ","1","Regular             ","1","Merchantable   ","N","N",47.3778839111328,-114.097061157227,NA,1,0,NA,NA,NA,NA,"St. Ignatius","MT",0,47.3778839111328,0,-114.097061157227,0,"Lake","Merch",1,NA
394,"Hobson                        ","1","Regular             ","1","Merchantable   ","N","N",46.9678916931152,-110.058685302734,NA,1,0,NA,NA,NA,NA,"Hobson","MT",0,46.9678916931152,0,-110.058685302734,0,"Judith Basin","Merch",1,NA
395,"Eureka                        ","1","Regular             ","1","Merchantable   ","N","N",48.8709678649902,-115.054862976074,NA,1,0,NA,NA,NA,NA,"Eureka","MT",0,48.8709678649902,0,-115.054862976074,0,"Lincoln","Merch",1,NA
396,"Melstone                      ","1","Regular             ","1","Merchantable   ","N","N",46.5679244995117,-107.974021911621,NA,1,0,NA,NA,NA,NA,"Melstone","MT",0,46.5679244995117,0,-107.974021911621,0,"Musselshell","Merch",1,NA
397,"Kalispell                     ","1","Regular             ","1","Merchantable   ","N","N",48.2599105834961,-114.253662109375,NA,1,0,NA,NA,NA,NA,"Kalispell","MT",0,48.2599105834961,0,-114.253662109375,0,"Flathead","Merch",1,NA
398,"Troy                          ","1","Regular             ","1","Merchantable   ","N","N",48.4704666137695,-115.894752502441,NA,1,0,NA,NA,NA,NA,"Troy","MT",0,48.4704666137695,0,-115.894752502441,0,"Lincoln","Merch",1,NA
399,"St. Regis                     ","1","Regular             ","1","Merchantable   ","N","N",47.3146858215332,-115.082145690918,NA,1,0,NA,NA,NA,NA,"St. Regis","MT",0,47.3146858215332,0,-115.082145690918,0,"Mineral","Merch",1,NA
400,"Hysham                        ","1","Regular             ","1","Merchantable   ","N","N",46.1835632324219,-107.129425048828,NA,1,0,NA,NA,NA,NA,"Hysham","MT",0,46.1835632324219,0,-107.129425048828,0,"Treasure","Merch",1,NA
401,"Missoula                      ","1","Regular             ","1","Merchantable   ","N","N",46.762321472168,-114.081253051758,NA,1,0,NA,NA,NA,NA,"Missoula","MT",0,46.762321472168,0,-114.081253051758,0,"Missoula","Merch",1,NA
402,"Lodge Grass                   ","1","Regular             ","1","Merchantable   ","N","N",45.2150993347168,-107.220893859863,NA,1,0,NA,NA,NA,NA,"Lodge Grass","MT",0,45.2150993347168,0,-107.220893859863,0,"Big Horn","Merch",1,NA
403,"Whitlash                      ","1","Regular             ","1","Merchantable   ","N","N",48.7807960510254,-111.147361755371,NA,1,0,NA,NA,NA,NA,"Whitlash","MT",0,48.7807960510254,0,-111.147361755371,0,"Liberty","Merch",1,NA
404,"Lame Deer                     ","1","Regular             ","1","Merchantable   ","N","N",45.5943603515625,-106.306190490723,NA,1,0,NA,NA,NA,NA,"Lame Deer","MT",0,45.5943603515625,0,-106.306190490723,0,"Rosebud","Merch",1,NA
405,"Drummond                      ","1","Regular             ","1","Merchantable   ","N","N",46.6642913818359,-113.138618469238,NA,1,0,NA,NA,NA,NA,"Drummond","MT",0,46.6642913818359,0,-113.138618469238,0,"Granite","Merch",1,NA
406,"Fortine                       ","1","Regular             ","1","Merchantable   ","N","N",48.7766418457031,-114.903007507324,NA,1,0,NA,NA,NA,NA,"Fortine","MT",0,48.7766418457031,0,-114.903007507324,0,"Lincoln","Merch",1,NA
407,"Pablo                         ","1","Regular             ","1","Merchantable   ","N","N",47.6164093017578,-114.119773864746,NA,1,0,NA,NA,NA,NA,"Pablo","MT",0,47.6164093017578,0,-114.119773864746,0,"Lake","Merch",1,NA
408,"Columbia                      ","1","Regular             ","1","Merchantable   ","N","N",48.3684501647949,-114.18807220459,NA,1,0,NA,NA,NA,NA,"Columbia","MT",0,48.3684501647949,0,-114.18807220459,0,"Flathead","Merch",1,NA
409,"Seeley Lake                   ","1","Regular             ","1","Merchantable   ","N","N",47.1704750061035,-113.484855651855,NA,1,0,NA,NA,NA,NA,"Seeley Lake","MT",0,47.1704750061035,0,-113.484855651855,0,"Missoula","Merch",1,NA
410,"Wisdom                        ","1","Regular             ","1","Merchantable   ","N","N",45.6171684265137,-113.449592590332,NA,1,0,NA,NA,NA,NA,"Wisdom","MT",0,45.6171684265137,0,-113.449592590332,0,"Beaverhead","Merch",1,NA
411,"Judith Gap                    ","1","Regular             ","1","Merchantable   ","N","N",46.7253456115723,-109.560020446777,NA,1,0,NA,NA,NA,NA,"Judith Gap","MT",0,46.7253456115723,0,-109.560020446777,0,"Fergus","Merch",1,NA
412,"Martinsdale                   ","1","Regular             ","1","Merchantable   ","N","N",46.5505905151367,-110.476593017578,NA,1,0,NA,NA,NA,NA,"Martinsdale","MT",0,46.5505905151367,0,-110.476593017578,0,"Meagher","Merch",1,NA
413,"Whitehall                     ","1","Regular             ","1","Merchantable   ","N","N",45.8932495117188,-112.173515319824,NA,1,0,NA,NA,NA,NA,"Whitehall","MT",0,45.8932495117188,0,-112.173515319824,0,"Jefferson","Merch",1,NA
414,"Alder                         ","1","Regular             ","1","Merchantable   ","N","N",45.3198051452637,-112.112777709961,NA,1,0,NA,NA,NA,NA,"Alder","MT",0,45.3198051452637,0,-112.112777709961,0,"Madison","Merch",1,NA
415,"Noxon                         ","1","Regular             ","1","Merchantable   ","N","N",47.9967575073242,-115.756927490234,NA,1,0,NA,NA,NA,NA,"Noxon","MT",0,47.9967575073242,0,-115.756927490234,0,"Sanders","Merch",1,NA
416,"Worden                        ","1","Regular             ","1","Merchantable   ","N","N",45.9381217956543,-108.227500915527,NA,1,0,NA,NA,NA,NA,"Worden","MT",0,45.9381217956543,0,-108.227500915527,0,"Yellowstone","Merch",1,NA
417,"Deer Lodge                    ","1","Regular             ","1","Merchantable   ","N","N",46.3538017272949,-112.747871398926,NA,1,0,NA,NA,NA,NA,"Deer Lodge","MT",0,46.3538017272949,0,-112.747871398926,0,"Powell","Merch",1,NA
418,"Stevensville                  ","1","Regular             ","1","Merchantable   ","N","N",46.5549163818359,-113.995941162109,NA,1,0,NA,NA,NA,NA,"Stevensville","MT",0,46.5549163818359,0,-113.995941162109,0,"Ravalli","Merch",1,NA
419,"Big Timber                    ","1","Regular             ","1","Merchantable   ","N","N",45.8361968994141,-109.935279846191,NA,1,0,NA,NA,NA,NA,"Big Timber","MT",0,45.8361968994141,0,-109.935279846191,0,"Sweet Grass","Merch",1,NA
420,"Huson                         ","1","Regular             ","1","Merchantable   ","N","N",47.119010925293,-114.494903564453,NA,1,0,NA,NA,NA,NA,"Huson","MT",0,47.119010925293,0,-114.494903564453,0,"Missoula","Merch",1,NA
421,"Townsend                      ","1","Regular             ","1","Merchantable   ","N","N",46.3289833068848,-111.513877868652,NA,1,0,NA,NA,NA,NA,"Townsend","MT",0,46.3289833068848,0,-111.513877868652,0,"Broadwater","Merch",1,NA
422,"Wise River                    ","1","Regular             ","1","Merchantable   ","N","N",45.7921371459961,-112.956405639648,NA,1,0,NA,NA,NA,NA,"Wise River","MT",0,45.7921371459961,0,-112.956405639648,0,"Beaverhead","Merch",1,NA
423,"Superior                      ","1","Regular             ","1","Merchantable   ","N","N",47.1773796081543,-114.868881225586,NA,1,0,NA,NA,NA,NA,"Superior","MT",0,47.1773796081543,0,-114.868881225586,0,"Mineral","Merch",1,NA
424,"Darby                         ","1","Regular             ","1","Merchantable   ","N","N",45.841236114502,-114.230354309082,NA,1,0,NA,NA,NA,NA,"Darby","MT",0,45.841236114502,0,-114.230354309082,0,"Ravalli","Merch",1,NA
425,"Fort Shaw                     ","1","Regular             ","1","Merchantable   ","N","N",47.6096534729004,-111.879951477051,NA,1,0,NA,NA,NA,NA,"Fort Shaw","MT",0,47.6096534729004,0,-111.879951477051,0,"Cascade","Merch",1,NA
426,"Whitefish                     ","1","Regular             ","1","Merchantable   ","N","N",48.3761024475098,-114.186164855957,NA,1,0,NA,NA,NA,NA,"Whitefish","MT",0,48.3761024475098,0,-114.186164855957,0,"Flathead","Merch",1,NA
427,"Butte                         ","1","Regular             ","1","Merchantable   ","N","N",45.9476318359375,-112.508491516113,NA,1,0,NA,NA,NA,NA,"Butte","MT",0,45.9476318359375,0,-112.508491516113,0,"Silver Bow","Merch",1,NA
428,"Corvallis                     ","1","Regular             ","1","Merchantable   ","N","N",46.3127403259277,-114.103385925293,NA,1,0,NA,NA,NA,NA,"Corvallis","MT",0,46.3127403259277,0,-114.103385925293,0,"Ravalli","Merch",1,NA
429,"Middleton                     ","1","Regular             ","1","Merchantable   ","N","N",46.3202629089355,-113.311935424805,NA,1,0,NA,NA,NA,NA,"Middleton","ID",0,46.3202629089355,0,-113.311935424805,0,"Granite","Merch",1,NA
430,"Yampa                         ","1","Regular             ","1","Merchantable   ","N","N",46.5964088439941,-114.043167114258,NA,1,0,NA,NA,NA,NA,"Yampa","MT",0,46.5964088439941,0,-114.043167114258,0,"Ravalli","Merch",1,NA
431,"Birney                        ","1","Regular             ","1","Merchantable   ","N","N",45.3998603820801,-106.445762634277,NA,1,0,NA,NA,NA,NA,"Birney","MT",0,45.3998603820801,0,-106.445762634277,0,"Rosebud","Merch",1,NA
432,"Three Forks                   ","1","Regular             ","1","Merchantable   ","N","N",45.8888664245605,-111.583831787109,NA,1,0,NA,NA,NA,NA,"Three Forks","MT",0,45.8888664245605,0,-111.583831787109,0,"Gallatin","Merch",1,NA
433,"Dillon                        ","1","Regular             ","1","Merchantable   ","N","N",45.1530647277832,-112.718391418457,NA,1,0,NA,NA,NA,NA,"Dillon","MT",0,45.1530647277832,0,-112.718391418457,0,"Beaverhead","Merch",1,NA
434,"Highwood                      ","1","Regular             ","1","Merchantable   ","N","N",47.5844078063965,-110.799392700195,NA,1,0,NA,NA,NA,NA,"Highwood","MT",0,47.5844078063965,0,-110.799392700195,0,"Chouteau","Merch",1,NA
435,"Sandy                         ","1","Regular             ","1","Merchantable   ","N","N",45.3764419555664,-122.218055725098,NA,1,0,NA,NA,NA,NA,"Sandy","OR",0,45.3764419555664,0,-122.218055725098,0,"Clackamas","Merch",1,NA
315,"Hat Creek BioMAT Project      ","1","Regular             ","2","Energy         ","Y","N",40.8324813842773,-121.514213562012,"Active",1,0,NA,NA,NA,NA,"Hat Creek","CA",40.83214935,40.8324813842773,-121.5149496,-121.514213562012,2,NA,NA,2,NA
316,"Nevada County BioMAT Project  ","1","Regular             ","2","Energy         ","Y","N",39.2638893127441,-121.013305664062,"Active",1,0,NA,NA,NA,NA,"Nevada County","CA",39.26364317,39.2638893127441,-121.0133516,-121.013305664062,2,NA,NA,2,NA
317,"Camptonville BioMAT Project   ","1","Regular             ","2","Energy         ","Y","N",39.4525680541992,-121.048553466797,"Active",1,0,NA,NA,NA,NA,"Camptonville","CA",39.45226864,39.4525680541992,-121.0484632,-121.048553466797,2,NA,NA,2,NA
319,"Mooretown Rancheria BioMAT Pro","1","Regular             ","2","Energy         ","Y","N",39.4664077758789,-121.521537780762,"Active",1,0,NA,NA,NA,NA,"Mooretown","CA",39.46624093,39.4664077758789,-121.5218733,-121.521537780762,2,NA,NA,2,NA
322,"Crescent Mill BioMAT Project  ","1","Regular             ","2","Energy         ","Y","N",40.0965194702148,-120.90885925293,"Active",1,0,NA,NA,NA,NA,"Crescent Mill","CA",40.09576776,40.0965194702148,-120.9081135,-120.90885925293,2,NA,NA,2,NA
228,"Blue Lake Rancheria           ","1","Regular             ","2","Energy         ","N","N",40.8861923217773,-123.999053955078,"Active development",1,0,NA,NA,NA,NA,"Blue Lake","CA",40.886347,40.8861923217773,-124.000079,-123.999053955078,2,NA,NA,2,NA
229,"North Fork BioMAT Project     ","1","Regular             ","2","Energy         ","N","N",37.2318878173828,-119.49454498291,"Active development",1,0,NA,NA,NA,NA,"North Fork","CA",37.231861,37.2318878173828,-119.494599,-119.49454498291,2,NA,NA,2,NA
230,"Wilseyville BioMAT Project    ","1","Regular             ","2","Energy         ","N","N",38.3779220581055,-120.523712158203,"Active development",1,0,NA,NA,NA,NA,"West Point","CA",38.37751,38.3779220581055,-120.523977,-120.523712158203,2,NA,NA,2,NA
231,"Placer County                 ","1","Regular             ","2","Energy         ","N","N",39.2906150817871,-120.21410369873,"Active development",1,0,NA,NA,NA,NA,"Cabin Creek","CA",39.290828,39.2906150817871,-120.214074,-120.21410369873,2,NA,NA,2,NA
233,"Iberdrola Lakeview Project    ","1","Regular             ","2","Energy         ","N","N",42.1981658935547,-120.354782104492,"Active development",1,0,NA,NA,NA,NA,"Lakeview","OR",42.197586,42.1981658935547,-120.354345,-120.354782104492,2,NA,NA,2,NA
234,"Red Rock Biofuels LLC         ","1","Regular             ","2","Energy         ","N","N",42.1639366149902,-120.350120544434,"Active Development",1,0,NA,NA,NA,NA,"Lakeview","OR",42.163105,42.1639366149902,-120.349209,-120.350120544434,2,NA,NA,2,NA
235,"Central Valley Ag Grinding    ","1","Regular             ","2","Energy         ","N","N",37.7189521789551,-120.894081115723,"Active Development",1,0,NA,NA,NA,NA,"Oakdale","CA",37.718988,37.7189521789551,-120.895545,-120.894081115723,2,NA,NA,2,NA
255,"Eel River                     ","1","Regular             ","2","Energy         ","Y","N",40.481559753418,-124.104011535645,"Operational",1,0,NA,NA,NA,NA,"Scotia","CA",40.481337,40.481559753418,-124.104634,-124.104011535645,2,NA,NA,2,NA
279,"Burney Forest Power           ","1","Regular             ","2","Energy         ","Y","N",40.878963470459,-121.720016479492,"Operational",1,0,NA,NA,NA,NA,"Burney","CA",40.879724,40.878963470459,-121.720406,-121.720016479492,2,NA,NA,2,NA
280,"Chowchilla                    ","1","Regular             ","2","Energy         ","Y","N",37.1078758239746,-120.247436523438,"Operational",1,0,NA,NA,NA,NA,"Chowchilla","CA",37.107146,37.1078758239746,-120.248871,-120.247436523438,2,NA,NA,2,NA
281,"Collins Pine Co. Project      ","1","Regular             ","2","Energy         ","Y","N",40.3028526306152,-121.244323730469,"Operational",1,0,NA,NA,NA,NA,"Chester","CA",40.302842,40.3028526306152,-121.244088,-121.244323730469,2,NA,NA,2,NA
282,"Desert View                   ","1","Regular             ","2","Energy         ","Y","N",33.5842437744141,-116.086807250977,"Operational",1,0,NA,NA,NA,NA,"Mecca","CA",33.586491,33.5842437744141,-116.087907,-116.086807250977,2,NA,NA,2,NA
284,"Honey Lake Power              ","1","Regular             ","2","Energy         ","Y","N",40.3686103820801,-120.266220092773,"Operational",1,0,NA,NA,NA,NA,"Wendel","CA",40.368492,40.3686103820801,-120.264999,-120.266220092773,2,NA,NA,2,NA
285,"Merced Power (El Nido)        ","1","Regular             ","2","Energy         ","Y","N",37.1862182617188,-120.489784240723,"Operational",1,0,NA,NA,NA,NA,"El Nido","CA",37.186982,37.1862182617188,-120.490162,-120.489784240723,2,NA,NA,2,NA
286,"Pacific Ultrapower Chinese Sta","1","Regular             ","2","Energy         ","Y","N",37.8752403259277,-120.477676391602,"Operational",1,0,NA,NA,NA,NA,"Jamestown","CA",37.874644,37.8752403259277,-120.477546,-120.477676391602,2,NA,NA,2,NA
287,"Rio Bravo Fresno              ","1","Regular             ","2","Energy         ","Y","N",36.6892356872559,-119.726699829102,"Operational",1,0,NA,NA,NA,NA,"Fresno","CA",36.688823,36.6892356872559,-119.723405,-119.726699829102,2,NA,NA,2,NA
288,"Rio Bravo Rocklin             ","1","Regular             ","2","Energy         ","Y","N",38.8301620483398,-121.312705993652,"Operational",1,0,NA,NA,NA,NA,"Rocklin","CA",38.831829,38.8301620483398,-121.313601,-121.312705993652,2,NA,NA,2,NA
289,"Roseburg Forest Products      ","1","Regular             ","2","Energy         ","Y","N",41.4344749450684,-122.377960205078,"Operational",1,0,NA,NA,NA,NA,"Weed","CA",41.434612,41.4344749450684,-122.377895,-122.377960205078,2,NA,NA,2,NA
290,"SPI Burney                    ","1","Regular             ","2","Energy         ","Y","N",40.8773803710938,-121.700805664062,"Operational",1,0,NA,NA,NA,NA,"Burney","CA",40.876759,40.8773803710938,-121.701845,-121.700805664062,2,NA,NA,2,NA
291,"SPI Anderson II               ","1","Regular             ","2","Energy         ","Y","N",40.471851348877,-122.324325561523,"Operational",1,0,NA,NA,NA,NA,"Anderson","CA",40.47185,40.471851348877,-122.324034,-122.324325561523,2,NA,NA,2,NA
292,"SPI Lincoln                   ","1","Regular             ","2","Energy         ","Y","N",38.9026985168457,-121.31078338623,"Operational",1,0,NA,NA,NA,NA,"Lincoln","CA",38.902678,38.9026985168457,-121.309604,-121.31078338623,2,NA,NA,2,NA
293,"SPI Quincy                    ","1","Regular             ","2","Energy         ","Y","N",39.9416923522949,-120.911361694336,"Operational",1,0,NA,NA,NA,NA,"Quincy","CA",39.940962,39.9416923522949,-120.909161,-120.911361694336,2,NA,NA,2,NA
294,"SPI Sonora                    ","1","Regular             ","2","Energy         ","Y","N",37.9658546447754,-120.318321228027,"Operational",1,0,NA,NA,NA,NA,"Sonora","CA",37.965999,37.9658546447754,-120.318,-120.318321228027,2,NA,NA,2,NA
295,"Wadham                        ","1","Regular             ","2","Energy         ","Y","N",39.1053848266602,-122.113578796387,"Operational",1,0,NA,NA,NA,NA,"Williams","CA",39.105574,39.1053848266602,-122.110131,-122.113578796387,2,NA,NA,2,NA
296,"Wheelabrator Shasta           ","1","Regular             ","2","Energy         ","Y","N",40.4304733276367,-122.278999328613,"Operational",1,0,NA,NA,NA,NA,"Anderson","CA",40.429592,40.4304733276367,-122.278243,-122.278999328613,2,NA,NA,2,NA
297,"Woodland Biomass Power Ltd.   ","1","Regular             ","2","Energy         ","Y","N",38.6912879943848,-121.737655639648,"Operational",1,0,NA,NA,NA,NA,"Woodland","CA",38.691304,38.6912879943848,-121.737132,-121.737655639648,2,NA,NA,2,NA
298,"Biomass One LP                ","1","Regular             ","2","Energy         ","Y","N",42.4360618591309,-122.848915100098,"Operational",1,0,NA,NA,NA,NA,"White City","OR",42.436149,42.4360618591309,-122.849501,-122.848915100098,2,NA,NA,2,NA
301,"DTE Stockton (POSDEF)         ","1","Regular             ","2","Energy         ","Y","N",37.944221496582,-121.330123901367,"Operational",1,0,NA,NA,NA,NA,"Stockton","CA",37.943945,37.944221496582,-121.330053,-121.330123901367,2,NA,NA,2,NA
302,"Mt. Poso Cogeneration         ","1","Regular             ","2","Energy         ","Y","N",35.5763816833496,-119.007202148438,"Operational",1,0,NA,NA,NA,NA,"Bakersfield","CA",35.576448,35.5763816833496,-119.005818,-119.007202148438,2,NA,NA,2,NA
303,"Cal Forest Nursery            ","1","Regular             ","2","Energy         ","Y","N",41.475040435791,-122.829193115234,"Operational",1,0,NA,NA,NA,NA,"Etna","CA",41.475178,41.475040435791,-122.829037,-122.829193115234,2,NA,NA,2,NA
304,"Dixon Ridge Farms             ","1","Regular             ","2","Energy         ","Y","N",38.525951385498,-121.904037475586,"Operational",1,0,NA,NA,NA,NA,"Winters","CA",38.524353,38.525951385498,-121.903077,-121.904037475586,2,NA,NA,2,NA
305,"Timber Products               ","1","Regular             ","2","Energy         ","Y","N",41.7322998046875,-122.591232299805,"Operational",1,0,NA,NA,NA,NA,"Yreka","CA",41.731738,41.7322998046875,-122.589835,-122.591232299805,2,NA,NA,2,NA
306,"Columbia Plywood              ","1","Regular             ","2","Energy         ","Y","N",42.1805305480957,-121.79899597168,"Operational",1,0,NA,NA,NA,NA,"Klamath Falls","OR",42.179712,42.1805305480957,-121.798302,-121.79899597168,2,NA,NA,2,NA
307,"American Wood Shavings        ","1","Regular             ","2","Energy         ","Y","N",37.837947845459,-120.506568908691,"Operational",1,0,NA,NA,NA,NA,"Jamestown","CA",37.838344,37.837947845459,-120.5064,-120.506568908691,2,NA,NA,2,NA
308,"Collins Pine Co. Project      ","1","Regular             ","2","Energy         ","Y","N",42.1699409484863,-121.81901550293,"Operational",1,0,NA,NA,NA,NA,"Klamath Falls","OR",42.16992,42.1699409484863,-121.818424,-121.81901550293,2,NA,NA,2,NA
236,"Valley Bio-Energy             ","1","Regular             ","2","Energy         ","N","N",37.6387367248535,-120.999183654785,"Cancelled",0,0,NA,NA,NA,NA,"Modesto","CA",37.6383,37.6387367248535,-120.999589,-120.999183654785,2,NA,NA,2,NA
237,"Placer County                 ","1","Regular             ","2","Energy         ","N","N",39.244701385498,-120.026885986328,"Cancelled",0,0,NA,NA,NA,NA,"Kings Beach","CA",39.245133,39.244701385498,-120.027133,-120.026885986328,2,NA,NA,2,NA
238,"Iberdrola Klamath Falls Projec","1","Regular             ","2","Energy         ","N","N",42.1766471862793,-121.808906555176,"Cancelled",0,0,NA,NA,NA,NA,"Klamath Falls","OR",42.176324,42.1766471862793,-121.809231,-121.808906555176,2,NA,NA,2,NA
239,"Klamath Falls Bioenergy Projec","1","Regular             ","2","Energy         ","N","N",42.1740074157715,-121.821823120117,"Cancelled",0,0,NA,NA,NA,NA,"Klamath Falls","OR",42.174472,42.1740074157715,-121.822306,-121.821823120117,2,NA,NA,2,NA
240,"HFI BioPower                  ","1","Regular             ","2","Energy         ","N","N",43.6689491271973,-121.486198425293,"Cancelled",0,0,NA,NA,NA,NA,"La Pine","OR",43.668663,43.6689491271973,-121.486519,-121.486198425293,2,NA,NA,2,NA
241,"Ortigalita Power Co.          ","1","Regular             ","2","Energy         ","N","N",36.9787292480469,-120.873168945312,"Cancelled",0,0,NA,NA,NA,NA,"Los Banos","CA",36.979552,36.9787292480469,-120.870087,-120.873168945312,2,NA,NA,2,NA
242,"Rialto Renewable Energy Center","1","Regular             ","2","Energy         ","N","N",34.0484390258789,-117.357467651367,"Cancelled",0,0,NA,NA,NA,NA,"Bloomington","CA",34.052028,34.0484390258789,-117.359847,-117.357467651367,2,NA,NA,2,NA
243,"Colton Renewable Energy Center","1","Regular             ","2","Energy         ","N","N",34.0597534179688,-117.346069335938,"Cancelled",0,0,NA,NA,NA,NA,"Colton","CA",34.06079,34.0597534179688,-117.345883,-117.346069335938,2,NA,NA,2,NA
266,"SPI Anderson I                ","1","Regular             ","2","Energy         ","N","N",40.4729537963867,-122.323509216309,"Closed",0,0,NA,NA,NA,NA,"Anderson","CA",40.472715,40.4729537963867,-122.323162,-122.323509216309,2,NA,NA,2,NA
436,"Molalla                       ","1","Regular             ","1","Merchantable   ","N","N",45.1900482177734,-122.586936950684,NA,1,0,NA,NA,NA,NA,"Molalla","OR",0,45.1900482177734,0,-122.586936950684,0,"Clackamas","Merch",1,NA
437,"Sisters                       ","1","Regular             ","1","Merchantable   ","N","N",44.3152770996094,-121.486183166504,NA,1,0,NA,NA,NA,NA,"Sisters","OR",0,44.3152770996094,0,-121.486183166504,0,"Deschutes","Merch",1,NA
438,"Camas Valley                  ","1","Regular             ","1","Merchantable   ","Y","N",43.0285034179688,-123.678024291992,NA,1,0,NA,NA,NA,NA,"Camas Valley","OR",0,43.0285034179688,0,-123.678024291992,0,"Douglas","Merch",1,NA
439,"Riddle                        ","1","Regular             ","1","Merchantable   ","Y","N",42.9612731933594,-123.358352661133,NA,1,0,NA,NA,NA,NA,"Riddle","OR",0,42.9612731933594,0,-123.358352661133,0,"Douglas","Merch",1,NA
440,"Dayville                      ","1","Regular             ","1","Merchantable   ","N","N",44.4701995849609,-119.537635803223,NA,1,0,NA,NA,NA,NA,"Dayville","OR",0,44.4701995849609,0,-119.537635803223,0,"Grant","Merch",1,NA
441,"Monument                      ","1","Regular             ","1","Merchantable   ","N","N",44.8199119567871,-119.420700073242,NA,1,0,NA,NA,NA,NA,"Monument","OR",0,44.8199119567871,0,-119.420700073242,0,"Grant","Merch",1,NA
442,"Hood River                    ","1","Regular             ","1","Merchantable   ","N","N",45.5867042541504,-121.547210693359,NA,1,0,NA,NA,NA,NA,"Hood River","OR",0,45.5867042541504,0,-121.547210693359,0,"Hood River","Merch",1,NA
443,"White City                    ","1","Regular             ","1","Merchantable   ","Y","N",42.5867576599121,-122.972709655762,NA,1,0,NA,NA,NA,NA,"White City","OR",0,42.5867576599121,0,-122.972709655762,0,"Jackson","Merch",1,NA
444,"Grants Pass                   ","1","Regular             ","1","Merchantable   ","Y","N",42.4497337341309,-123.37198638916,NA,1,0,NA,NA,NA,NA,"Grants Pass","OR",0,42.4497337341309,0,-123.37198638916,0,"Josephine","Merch",1,NA
445,"Eugene                        ","1","Regular             ","1","Merchantable   ","Y","N",44.1164588928223,-123.184608459473,NA,1,0,NA,NA,NA,NA,"Eugene","OR",0,44.1164588928223,0,-123.184608459473,0,"Lane","Merch",1,NA
446,"Noti                          ","1","Regular             ","1","Merchantable   ","Y","N",44.0591468811035,-123.450996398926,NA,1,0,NA,NA,NA,NA,"Noti","OR",0,44.0591468811035,0,-123.450996398926,0,"Lane","Merch",1,NA
447,"Springfield                   ","1","Regular             ","1","Merchantable   ","Y","N",44.0652236938477,-122.974327087402,NA,1,0,NA,NA,NA,NA,"Springfield","OR",0,44.0652236938477,0,-122.974327087402,0,"Lane","Merch",1,NA
448,"Brookings                     ","1","Regular             ","1","Merchantable   ","Y","N",42.0533294677734,-124.290733337402,NA,1,0,NA,NA,NA,NA,"Brookings","OR",0,42.0533294677734,0,-124.290733337402,0,"Curry","Merch",1,NA
449,"Portland                      ","1","Regular             ","1","Merchantable   ","N","N",45.4569664001465,-122.701301574707,NA,1,0,NA,NA,NA,NA,"Portland","OR",0,45.4569664001465,0,-122.701301574707,0,"Multnomah","Merch",1,NA
450,"Roseburg                      ","1","Regular             ","1","Merchantable   ","Y","N",43.2115135192871,-123.362686157227,NA,1,0,NA,NA,NA,NA,"Roseburg","OR",0,43.2115135192871,0,-123.362686157227,0,"Douglas","Merch",1,NA
451,"La Pine                       ","1","Regular             ","1","Merchantable   ","Y","N",43.6692733764648,-121.531524658203,NA,1,0,NA,NA,NA,NA,"La Pine","OR",0,43.6692733764648,0,-121.531524658203,0,"Deschutes","Merch",1,NA
452,"Klamath Falls                 ","1","Regular             ","1","Merchantable   ","Y","N",42.1667976379395,-121.779876708984,NA,1,0,NA,NA,NA,NA,"Klamath Falls","OR",0,42.1667976379395,0,-121.779876708984,0,"Klamath","Merch",1,NA
453,"Salem                         ","1","Regular             ","1","Merchantable   ","Y","N",44.9707336425781,-123.076805114746,NA,1,0,NA,NA,NA,NA,"Salem","OR",0,44.9707336425781,0,-123.076805114746,0,"Polk","Merch",1,NA
454,"Scio                          ","1","Regular             ","1","Merchantable   ","Y","N",44.7077980041504,-122.84595489502,NA,1,0,NA,NA,NA,NA,"Scio","OR",0,44.7077980041504,0,-122.84595489502,0,"Linn","Merch",1,NA
455,"Blue River                    ","1","Regular             ","1","Merchantable   ","Y","N",44.189037322998,-122.10710144043,NA,1,0,NA,NA,NA,NA,"Blue River","OR",0,44.189037322998,0,-122.10710144043,0,"Lane","Merch",1,NA
456,"Estacada                      ","1","Regular             ","1","Merchantable   ","N","N",45.2900123596191,-122.36499786377,NA,1,0,NA,NA,NA,NA,"Estacada","OR",0,45.2900123596191,0,-122.36499786377,0,"Clackamas","Merch",1,NA
457,"Reedsport                     ","1","Regular             ","1","Merchantable   ","Y","N",43.6928977966309,-124.119186401367,NA,1,0,NA,NA,NA,NA,"Reedsport","OR",0,43.6928977966309,0,-124.119186401367,0,"Douglas","Merch",1,NA
458,"Eagle Point                   ","1","Regular             ","1","Merchantable   ","Y","N",42.4777069091797,-122.70491027832,NA,1,0,NA,NA,NA,NA,"Eagle Point","OR",0,42.4777069091797,0,-122.70491027832,0,"Jackson","Merch",1,NA
459,"Mulino                        ","1","Regular             ","1","Merchantable   ","N","N",45.2427978515625,-122.5712890625,NA,1,0,NA,NA,NA,NA,"Mulino","OR",0,45.2427978515625,0,-122.5712890625,0,"Clackamas","Merch",1,NA
460,"Mount Vernon                  ","1","Regular             ","1","Merchantable   ","N","N",44.4196243286133,-119.116035461426,NA,1,0,NA,NA,NA,NA,"Mount Vernon","OR",0,44.4196243286133,0,-119.116035461426,0,"Grant","Merch",1,NA
461,"Cottage Grove                 ","1","Regular             ","1","Merchantable   ","Y","N",43.7534942626953,-123.115447998047,NA,1,0,NA,NA,NA,NA,"Cottage Grove","OR",0,43.7534942626953,0,-123.115447998047,0,"Lane","Merch",1,NA
462,"Monroe                        ","1","Regular             ","1","Merchantable   ","Y","N",44.3225631713867,-123.29842376709,NA,1,0,NA,NA,NA,NA,"Monroe","OR",0,44.3225631713867,0,-123.29842376709,0,"Benton","Merch",1,NA
463,"Coquille                      ","1","Regular             ","1","Merchantable   ","Y","N",43.194953918457,-124.240631103516,NA,1,0,NA,NA,NA,NA,"Coquille","OR",0,43.194953918457,0,-124.240631103516,0,"Coos","Merch",1,NA
464,"Powers                        ","1","Regular             ","1","Merchantable   ","Y","N",42.8280181884766,-124.016830444336,NA,1,0,NA,NA,NA,NA,"Powers","OR",0,42.8280181884766,0,-124.016830444336,0,"Coos","Merch",1,NA
465,"Bandon                        ","1","Regular             ","1","Merchantable   ","Y","N",43.116340637207,-124.412879943848,NA,1,0,NA,NA,NA,NA,"Bandon","OR",0,43.116340637207,0,-124.412879943848,0,"Coos","Merch",1,NA
466,"Woodburn                      ","1","Regular             ","1","Merchantable   ","N","N",45.1398429870605,-122.860580444336,NA,1,0,NA,NA,NA,NA,"Woodburn","OR",0,45.1398429870605,0,-122.860580444336,0,"Marion","Merch",1,NA
467,"Wolf Creek                    ","1","Regular             ","1","Merchantable   ","Y","N",42.6807479858398,-123.40828704834,NA,1,0,NA,NA,NA,NA,"Wolf Creek","OR",0,42.6807479858398,0,-123.40828704834,0,"Josephine","Merch",1,NA
468,"Coos Bay                      ","1","Regular             ","1","Merchantable   ","Y","N",43.3765106201172,-124.270927429199,NA,1,0,NA,NA,NA,NA,"Coos Bay","OR",0,43.3765106201172,0,-124.270927429199,0,"Coos","Merch",1,NA
469,"Canby                         ","1","Regular             ","1","Merchantable   ","N","N",45.2496757507324,-122.689491271973,NA,1,0,NA,NA,NA,NA,"Canby","OR",0,45.2496757507324,0,-122.689491271973,0,"Clackamas","Merch",1,NA
470,"Norway                        ","1","Regular             ","1","Merchantable   ","Y","N",43.0175628662109,-124.111633300781,NA,1,0,NA,NA,NA,NA,"Norway","OR",0,43.0175628662109,0,-124.111633300781,0,"Coos","Merch",1,NA
471,"St. Helens                    ","1","Regular             ","1","Merchantable   ","N","N",45.8406181335449,-122.809989929199,NA,1,0,NA,NA,NA,NA,"St. Helens","OR",0,45.8406181335449,0,-122.809989929199,0,"Columbia","Merch",1,NA
472,"Creswell                      ","1","Regular             ","1","Merchantable   ","Y","N",43.8969230651855,-123.015251159668,NA,1,0,NA,NA,NA,NA,"Creswell","OR",0,43.8969230651855,0,-123.015251159668,0,"Lane","Merch",1,NA
473,"Tumalo                        ","1","Regular             ","1","Merchantable   ","Y","N",44.1974143981934,-121.399238586426,NA,1,0,NA,NA,NA,NA,"Tumalo","OR",0,44.1974143981934,0,-121.399238586426,0,"Deschutes","Merch",1,NA
474,"John Day                      ","1","Regular             ","1","Merchantable   ","N","N",44.4274482727051,-118.982551574707,NA,1,0,NA,NA,NA,NA,"John Day","OR",0,44.4274482727051,0,-118.982551574707,0,"Grant","Merch",1,NA
475,"Mill City                     ","1","Regular             ","1","Merchantable   ","N","N",44.7357788085938,-122.444038391113,NA,1,0,NA,NA,NA,NA,"Mill City","OR",0,44.7357788085938,0,-122.444038391113,0,"Linn","Merch",1,NA
476,"Lyons                         ","1","Regular             ","1","Merchantable   ","N","N",44.7608604431152,-122.596305847168,NA,1,0,NA,NA,NA,NA,"Lyons","OR",0,44.7608604431152,0,-122.596305847168,0,"Linn","Merch",1,NA
477,"Cave Junction                 ","1","Regular             ","1","Merchantable   ","Y","N",42.1495628356934,-123.648635864258,NA,1,0,NA,NA,NA,NA,"Cave Junction","OR",0,42.1495628356934,0,-123.648635864258,0,"Josephine","Merch",1,NA
478,"Medford                       ","1","Regular             ","1","Merchantable   ","Y","N",42.3454475402832,-122.907127380371,NA,1,0,NA,NA,NA,NA,"Medford","OR",0,42.3454475402832,0,-122.907127380371,0,"Jackson","Merch",1,NA
479,"Glendale                      ","1","Regular             ","1","Merchantable   ","Y","N",42.7592353820801,-123.399253845215,NA,1,0,NA,NA,NA,NA,"Glendale","OR",0,42.7592353820801,0,-123.399253845215,0,"Douglas","Merch",1,NA
480,"Lebanon                       ","1","Regular             ","1","Merchantable   ","Y","N",44.5142860412598,-122.88655090332,NA,1,0,NA,NA,NA,NA,"Lebanon","OR",0,44.5142860412598,0,-122.88655090332,0,"Linn","Merch",1,NA
481,"Prairie City                  ","1","Regular             ","1","Merchantable   ","N","N",44.4639778137207,-118.704620361328,NA,1,0,NA,NA,NA,NA,"Prairie City","OR",0,44.4639778137207,0,-118.704620361328,0,"Grant","Merch",1,NA
482,"Dillard                       ","1","Regular             ","1","Merchantable   ","Y","N",43.1020622253418,-123.428756713867,NA,1,0,NA,NA,NA,NA,"Dillard","OR",0,43.1020622253418,0,-123.428756713867,0,"Douglas","Merch",1,NA
483,"Gilchrist                     ","1","Regular             ","1","Merchantable   ","Y","N",43.4245986938477,-121.686660766602,NA,1,0,NA,NA,NA,NA,"Gilchrist","OR",0,43.4245986938477,0,-121.686660766602,0,"Klamath","Merch",1,NA
484,"Warm Springs                  ","1","Regular             ","1","Merchantable   ","N","N",44.7760124206543,-121.299819946289,NA,1,0,NA,NA,NA,NA,"Warm Springs","OR",0,44.7760124206543,0,-121.299819946289,0,"Jefferson","Merch",1,NA
485,"Winchester                    ","1","Regular             ","1","Merchantable   ","Y","N",43.2827453613281,-123.344078063965,NA,1,0,NA,NA,NA,NA,"Winchester","OR",0,43.2827453613281,0,-123.344078063965,0,"Douglas","Merch",1,NA
486,"Mehama                        ","1","Regular             ","1","Merchantable   ","N","N",44.8046264648438,-122.624580383301,NA,1,0,NA,NA,NA,NA,"Mehama","OR",0,44.8046264648438,0,-122.624580383301,0,"Marion","Merch",1,NA
487,"Lakeview                      ","1","Regular             ","1","Merchantable   ","Y","N",42.1935729980469,-120.359443664551,NA,1,0,NA,NA,NA,NA,"Lakeview","OR",0,42.1935729980469,0,-120.359443664551,0,"Lake","Merch",1,NA
488,"Sweet Home                    ","1","Regular             ","1","Merchantable   ","Y","N",44.4095153808594,-122.592247009277,NA,1,0,NA,NA,NA,NA,"Sweet Home","OR",0,44.4095153808594,0,-122.592247009277,0,"Linn","Merch",1,NA
489,"Harrisburg                    ","1","Regular             ","1","Merchantable   ","Y","N",44.3144454956055,-123.123390197754,NA,1,0,NA,NA,NA,NA,"Harrisburg","OR",0,44.3144454956055,0,-123.123390197754,0,"Linn","Merch",1,NA
490,"Sutherlin                     ","1","Regular             ","1","Merchantable   ","Y","N",43.3946304321289,-123.318786621094,NA,1,0,NA,NA,NA,NA,"Sutherlin","OR",0,43.3946304321289,0,-123.318786621094,0,"Douglas","Merch",1,NA
491,"Port Angeles                  ","1","Regular             ","1","Merchantable   ","N","N",48.1218948364258,-123.441009521484,NA,1,0,NA,NA,NA,NA,"Port Angeles","WA",0,48.1218948364258,0,-123.441009521484,0,"Clallam","Merch",1,NA
492,"Forks                         ","1","Regular             ","1","Merchantable   ","N","N",47.9253959655762,-124.406715393066,NA,1,0,NA,NA,NA,NA,"Forks","WA",0,47.9253959655762,0,-124.406715393066,0,"Clallam","Merch",1,NA
493,"Longview                      ","1","Regular             ","1","Merchantable   ","N","N",46.1206703186035,-122.927719116211,NA,1,0,NA,NA,NA,NA,"Longview","WA",0,46.1206703186035,0,-122.927719116211,0,"Cowlitz","Merch",1,NA
494,"Amanda Park                   ","1","Regular             ","1","Merchantable   ","N","N",47.4809150695801,-123.89599609375,NA,1,0,NA,NA,NA,NA,"Amanda Park","WA",0,47.4809150695801,0,-123.89599609375,0,"Grays Harbor","Merch",1,NA
495,"Hoquiam                       ","1","Regular             ","1","Merchantable   ","N","N",46.979190826416,-123.900756835938,NA,1,0,NA,NA,NA,NA,"Hoquiam","WA",0,46.979190826416,0,-123.900756835938,0,"Grays Harbor","Merch",1,NA
496,"Aberdeen                      ","1","Regular             ","1","Merchantable   ","N","N",46.9691886901855,-123.785697937012,NA,1,0,NA,NA,NA,NA,"Aberdeen","WA",0,46.9691886901855,0,-123.785697937012,0,"Grays Harbor","Merch",1,NA
497,"Chehalis                      ","1","Regular             ","1","Merchantable   ","N","N",46.5717658996582,-122.735244750977,NA,1,0,NA,NA,NA,NA,"Chehalis","WA",0,46.5717658996582,0,-122.735244750977,0,"Lewis","Merch",1,NA
498,"Centralia                     ","1","Regular             ","1","Merchantable   ","N","N",46.7585716247559,-122.997932434082,NA,1,0,NA,NA,NA,NA,"Centralia","WA",0,46.7585716247559,0,-122.997932434082,0,"Lewis","Merch",1,NA
499,"Shelton                       ","1","Regular             ","1","Merchantable   ","N","N",47.2205810546875,-123.083168029785,NA,1,0,NA,NA,NA,NA,"Shelton","WA",0,47.2205810546875,0,-123.083168029785,0,"Mason","Merch",1,NA
500,"Tacoma                        ","1","Regular             ","1","Merchantable   ","N","N",47.247386932373,-122.438125610352,NA,1,0,NA,NA,NA,NA,"Tacoma","WA",0,47.247386932373,0,-122.438125610352,0,"Pierce","Merch",1,NA
501,"Sedro Woolley                 ","1","Regular             ","1","Merchantable   ","N","N",48.5307998657227,-122.201049804688,NA,1,0,NA,NA,NA,NA,"Sedro Woolley","WA",0,48.5307998657227,0,-122.201049804688,0,"Skagit","Merch",1,NA
502,"Mt. Vernon                    ","1","Regular             ","1","Merchantable   ","N","N",48.4498977661133,-122.444190979004,NA,1,0,NA,NA,NA,NA,"Mt. Vernon","WA",0,48.4498977661133,0,-122.444190979004,0,"Skagit","Merch",1,NA
503,"Stanwood                      ","1","Regular             ","1","Merchantable   ","N","N",48.2465896606445,-122.260406494141,NA,1,0,NA,NA,NA,NA,"Stanwood","WA",0,48.2465896606445,0,-122.260406494141,0,"Snohomish","Merch",1,NA
504,"Snohomish                     ","1","Regular             ","1","Merchantable   ","N","N",47.8283081054688,-122.098114013672,NA,1,0,NA,NA,NA,NA,"Snohomish","WA",0,47.8283081054688,0,-122.098114013672,0,"Snohomish","Merch",1,NA
505,"Arlington                     ","1","Regular             ","1","Merchantable   ","N","N",48.1875686645508,-122.10147857666,NA,1,0,NA,NA,NA,NA,"Arlington","WA",0,48.1875686645508,0,-122.10147857666,0,"Snohomish","Merch",1,NA
506,"Everett                       ","1","Regular             ","1","Merchantable   ","N","N",47.970344543457,-122.196792602539,NA,1,0,NA,NA,NA,NA,"Everett","WA",0,47.970344543457,0,-122.196792602539,0,"Snohomish","Merch",1,NA
507,"Darrington                    ","1","Regular             ","1","Merchantable   ","N","N",48.268009185791,-121.568161010742,NA,1,0,NA,NA,NA,NA,"Darrington","WA",0,48.268009185791,0,-121.568161010742,0,"Snohomish","Merch",1,NA
508,"Colville                      ","1","Regular             ","1","Merchantable   ","N","N",48.5591278076172,-117.977767944336,NA,1,0,NA,NA,NA,NA,"Colville","WA",0,48.5591278076172,0,-117.977767944336,0,"Stevens","Merch",1,NA
509,"Rochester                     ","1","Regular             ","1","Merchantable   ","N","N",46.8230361938477,-123.093139648438,NA,1,0,NA,NA,NA,NA,"Rochester","WA",0,46.8230361938477,0,-123.093139648438,0,"Thurston","Merch",1,NA
510,"Bellingham                    ","1","Regular             ","1","Merchantable   ","N","N",48.6247482299805,-122.365844726562,NA,1,0,NA,NA,NA,NA,"Bellingham","WA",0,48.6247482299805,0,-122.365844726562,0,"Whatcom","Merch",1,NA
511,"Vancouver                     ","1","Regular             ","1","Merchantable   ","N","N",45.5857391357422,-122.480949401855,NA,1,0,NA,NA,NA,NA,"Vancouver","WA",0,45.5857391357422,0,-122.480949401855,0,"Clark","Merch",1,NA
512,"Everson                       ","1","Regular             ","1","Merchantable   ","N","N",48.9197883605957,-122.287139892578,NA,1,0,NA,NA,NA,NA,"Everson","WA",0,48.9197883605957,0,-122.287139892578,0,"Whatcom","Merch",1,NA
513,"Morton                        ","1","Regular             ","1","Merchantable   ","N","N",46.5865440368652,-122.244918823242,NA,1,0,NA,NA,NA,NA,"Morton","WA",0,46.5865440368652,0,-122.244918823242,0,"Lewis","Merch",1,NA
514,"Randle                        ","1","Regular             ","1","Merchantable   ","N","N",46.5341033935547,-121.918418884277,NA,1,0,NA,NA,NA,NA,"Randle","WA",0,46.5341033935547,0,-121.918418884277,0,"Lewis","Merch",1,NA
515,"Marysville                    ","1","Regular             ","1","Merchantable   ","N","N",48.0486602783203,-122.1767578125,NA,1,0,NA,NA,NA,NA,"Marysville","WA",0,48.0486602783203,0,-122.1767578125,0,"Snohomish","Merch",1,NA
516,"Beaver                        ","1","Regular             ","1","Merchantable   ","N","N",48.058464050293,-124.315162658691,NA,1,0,NA,NA,NA,NA,"Beaver","WA",0,48.058464050293,0,-124.315162658691,0,"Clallam","Merch",1,NA
517,"Humptulips                    ","1","Regular             ","1","Merchantable   ","N","N",47.3969268798828,-123.890701293945,NA,1,0,NA,NA,NA,NA,"Humptulips","WA",0,47.3969268798828,0,-123.890701293945,0,"Grays Harbor","Merch",1,NA
518,"Kalama                        ","1","Regular             ","1","Merchantable   ","N","N",46.0143623352051,-122.845832824707,NA,1,0,NA,NA,NA,NA,"Kalama","WA",0,46.0143623352051,0,-122.845832824707,0,"Cowlitz","Merch",1,NA
519,"Raymond                       ","1","Regular             ","1","Merchantable   ","N","N",46.6878814697266,-123.737037658691,NA,1,0,NA,NA,NA,NA,"Raymond","WA",0,46.6878814697266,0,-123.737037658691,0,"Pacific","Merch",1,NA
520,"Carson                        ","1","Regular             ","1","Merchantable   ","N","N",45.7477645874023,-121.823753356934,NA,1,0,NA,NA,NA,NA,"Carson","WA",0,45.7477645874023,0,-121.823753356934,0,"Skamania","Merch",1,NA
521,"Clarkston                     ","1","Regular             ","1","Merchantable   ","N","N",46.4148788452148,-117.080619812012,NA,1,0,NA,NA,NA,NA,"Clarkston","WA",0,46.4148788452148,0,-117.080619812012,0,"Asotin","Merch",1,NA
522,"Kettle Falls                  ","1","Regular             ","1","Merchantable   ","N","N",48.6095199584961,-118.065582275391,NA,1,0,NA,NA,NA,NA,"Kettle Falls","WA",0,48.6095199584961,0,-118.065582275391,0,"Stevens","Merch",1,NA
523,"Omak                          ","1","Regular             ","1","Merchantable   ","N","N",48.415355682373,-119.523574829102,NA,1,0,NA,NA,NA,NA,"Omak","WA",0,48.415355682373,0,-119.523574829102,0,"Okanogan","Merch",1,NA
524,"Naches                        ","1","Regular             ","1","Merchantable   ","N","N",46.7340812683105,-120.723541259766,NA,1,0,NA,NA,NA,NA,"Naches","WA",0,46.7340812683105,0,-120.723541259766,0,"Yakima","Merch",1,NA
525,"Leavenworth                   ","1","Regular             ","1","Merchantable   ","N","N",47.7368659973145,-120.741645812988,NA,1,0,NA,NA,NA,NA,"Leavenworth","WA",0,47.7368659973145,0,-120.741645812988,0,"Chelan","Merch",1,NA
526,"Springdale                    ","1","Regular             ","1","Merchantable   ","N","N",48.0578269958496,-117.752952575684,NA,1,0,NA,NA,NA,NA,"Springdale","WA",0,48.0578269958496,0,-117.752952575684,0,"Stevens","Merch",1,NA
527,"White Swan                    ","1","Regular             ","1","Merchantable   ","N","N",46.3911743164062,-120.754753112793,NA,1,0,NA,NA,NA,NA,"White Swan","WA",0,46.3911743164062,0,-120.754753112793,0,"Yakima","Merch",1,NA
528,"Oroville                      ","1","Regular             ","1","Merchantable   ","N","N",48.9365730285645,-119.431037902832,NA,1,0,NA,NA,NA,NA,"Oroville","WA",0,48.9365730285645,0,-119.431037902832,0,"Okanogan","Merch",1,NA
529,"Burlington                    ","1","Regular             ","1","Merchantable   ","N","N",48.5736923217773,-122.380645751953,NA,1,0,NA,NA,NA,NA,"Burlington","WA",0,48.5736923217773,0,-122.380645751953,0,"Skagit","Merch",1,NA
530,"Onalaska                      ","1","Regular             ","1","Merchantable   ","N","N",46.5718994140625,-122.729888916016,NA,1,0,NA,NA,NA,NA,"Onalaska","WA",0,46.5718994140625,0,-122.729888916016,0,"Lewis","Merch",1,NA
531,"Montesano                     ","1","Regular             ","1","Merchantable   ","N","N",46.9716033935547,-123.601005554199,NA,1,0,NA,NA,NA,NA,"Montesano","WA",0,46.9716033935547,0,-123.601005554199,0,"Grays Harbor","Merch",1,NA
532,"Anacortes                     ","1","Regular             ","1","Merchantable   ","N","N",48.4781875610352,-122.546630859375,NA,1,0,NA,NA,NA,NA,"Anacortes","WA",0,48.4781875610352,0,-122.546630859375,0,"Skagit","Merch",1,NA
533,"Granite Falls                 ","1","Regular             ","1","Merchantable   ","N","N",48.0887908935547,-121.774604797363,NA,1,0,NA,NA,NA,NA,"Granite Falls","WA",0,48.0887908935547,0,-121.774604797363,0,"Snohomish","Merch",1,NA
534,"Toledo                        ","1","Regular             ","1","Merchantable   ","N","N",46.430908203125,-122.814476013184,NA,1,0,NA,NA,NA,NA,"Toledo","WA",0,46.430908203125,0,-122.814476013184,0,"Lewis","Merch",1,NA
535,"Elma                          ","1","Regular             ","1","Merchantable   ","N","N",47.0731391906738,-123.372947692871,NA,1,0,NA,NA,NA,NA,"Elma","WA",0,47.0731391906738,0,-123.372947692871,0,"Grays Harbor","Merch",1,NA
536,"Seiku                         ","1","Regular             ","1","Merchantable   ","N","N",48.2663459777832,-124.337852478027,NA,1,0,NA,NA,NA,NA,"Seiku","WA",0,48.2663459777832,0,-124.337852478027,0,"Clallam","Merch",1,NA
537,"Olympia                       ","1","Regular             ","1","Merchantable   ","N","N",47.0531425476074,-122.904327392578,NA,1,0,NA,NA,NA,NA,"Olympia","WA",0,47.0531425476074,0,-122.904327392578,0,"Thurston","Merch",1,NA
538,"Sultan                        ","1","Regular             ","1","Merchantable   ","N","N",47.8633270263672,-121.797164916992,NA,1,0,NA,NA,NA,NA,"Sultan","WA",0,47.8633270263672,0,-121.797164916992,0,"Snohomish","Merch",1,NA
539,"Chewelah                      ","1","Regular             ","1","Merchantable   ","N","N",48.2966766357422,-117.715560913086,NA,1,0,NA,NA,NA,NA,"Chewelah","WA",0,48.2966766357422,0,-117.715560913086,0,"Stevens","Merch",1,NA
540,"Entiat                        ","1","Regular             ","1","Merchantable   ","N","N",47.6882972717285,-120.205764770508,NA,1,0,NA,NA,NA,NA,"Entiat","WA",0,47.6882972717285,0,-120.205764770508,0,"Chelan","Merch",1,NA
541,"Little Rock                   ","1","Regular             ","1","Merchantable   ","N","N",46.8857040405273,-123.141487121582,NA,1,0,NA,NA,NA,NA,"Little Rock","WA",0,46.8857040405273,0,-123.141487121582,0,"Thurston","Merch",1,NA
542,"Sammamish                     ","1","Regular             ","1","Merchantable   ","N","N",47.6363105773926,-122.015090942383,NA,1,0,NA,NA,NA,NA,"Sammamish","WA",0,47.6363105773926,0,-122.015090942383,0,"King","Merch",1,NA
543,"Sumner                        ","1","Regular             ","1","Merchantable   ","N","N",47.2500991821289,-122.246650695801,NA,1,0,NA,NA,NA,NA,"Sumner","WA",0,47.2500991821289,0,-122.246650695801,0,"Pierce","Merch",1,NA
544,"Toutle                        ","1","Regular             ","1","Merchantable   ","N","N",46.3431205749512,-122.6767578125,NA,1,0,NA,NA,NA,NA,"Toutle","WA",0,46.3431205749512,0,-122.6767578125,0,"Cowlitz","Merch",1,NA
545,"Wellpinit                     ","1","Regular             ","1","Merchantable   ","N","N",47.9391708374023,-118.005668640137,NA,1,0,NA,NA,NA,NA,"Wellpinit","WA",0,47.9391708374023,0,-118.005668640137,0,"Spokane","Merch",1,NA
546,"Hyrum                         ","1","Regular             ","1","Merchantable   ","N","N",41.625072479248,-111.832237243652,NA,1,0,NA,NA,NA,NA,"Hyrum","UT",0,41.625072479248,0,-111.832237243652,0,"Cache","Merch",1,NA
547,"Ogden                         ","1","Regular             ","1","Merchantable   ","N","N",41.2619018554688,-111.975692749023,NA,1,0,NA,NA,NA,NA,"Ogden","UT",0,41.2619018554688,0,-111.975692749023,0,"Weber","Merch",1,NA
548,"Cleveland                     ","1","Regular             ","1","Merchantable   ","N","N",39.3409996032715,-110.833023071289,NA,1,0,NA,NA,NA,NA,"Cleveland","UT",0,39.3409996032715,0,-110.833023071289,0,"Emery","Merch",1,NA
549,"Kamas                         ","1","Regular             ","1","Merchantable   ","N","N",40.6321029663086,-111.226448059082,NA,1,0,NA,NA,NA,NA,"Kamas","UT",0,40.6321029663086,0,-111.226448059082,0,"Summit","Merch",1,NA
550,"Lapoint                       ","1","Regular             ","1","Merchantable   ","N","N",40.3925094604492,-109.812843322754,NA,1,0,NA,NA,NA,NA,"Lapoint","UT",0,40.3925094604492,0,-109.812843322754,0,"Uintah","Merch",1,NA
551,"Fruitland                     ","1","Regular             ","1","Merchantable   ","N","N",40.2283363342285,-110.831298828125,NA,1,0,NA,NA,NA,NA,"Fruitland","UT",0,40.2283363342285,0,-110.831298828125,0,"Duchesne","Merch",1,NA
552,"Escalante                     ","1","Regular             ","1","Merchantable   ","N","N",37.7450141906738,-111.588455200195,NA,1,0,NA,NA,NA,NA,"Escalante","UT",0,37.7450141906738,0,-111.588455200195,0,"Garfield","Merch",1,NA
553,"Bicknell                      ","1","Regular             ","1","Merchantable   ","N","N",38.3371276855469,-111.568992614746,NA,1,0,NA,NA,NA,NA,"Bicknell","UT",0,38.3371276855469,0,-111.568992614746,0,"Wayne","Merch",1,NA
554,"Centerville                   ","1","Regular             ","1","Merchantable   ","N","N",40.9298095703125,-111.872222900391,NA,1,0,NA,NA,NA,NA,"Centerville","UT",0,40.9298095703125,0,-111.872222900391,0,"Davis","Merch",1,NA
555,"Heber City                    ","1","Regular             ","1","Merchantable   ","N","N",40.468620300293,-111.439491271973,NA,1,0,NA,NA,NA,NA,"Heber City","UT",0,40.468620300293,0,-111.439491271973,0,"Wasatch","Merch",1,NA
556,"Lyman                         ","1","Regular             ","1","Merchantable   ","N","N",38.4220886230469,-111.611801147461,NA,1,0,NA,NA,NA,NA,"Lyman","UT",0,38.4220886230469,0,-111.611801147461,0,"Wayne","Merch",1,NA
557,"Logan                         ","1","Regular             ","1","Merchantable   ","N","N",41.7354354858398,-111.797218322754,NA,1,0,NA,NA,NA,NA,"Logan","UT",0,41.7354354858398,0,-111.797218322754,0,"Cache","Merch",1,NA
558,"Morgan                        ","1","Regular             ","1","Merchantable   ","N","N",41.0607452392578,-111.679306030273,NA,1,0,NA,NA,NA,NA,"Morgan","UT",0,41.0607452392578,0,-111.679306030273,0,"Morgan","Merch",1,NA
559,"Cedar City                    ","1","Regular             ","1","Merchantable   ","N","N",37.6702423095703,-113.085075378418,NA,1,0,NA,NA,NA,NA,"Cedar City","UT",0,37.6702423095703,0,-113.085075378418,0,"Iron","Merch",1,NA
560,"Beaver                        ","1","Regular             ","1","Merchantable   ","N","N",38.2936859130859,-112.637054443359,NA,1,0,NA,NA,NA,NA,"Beaver","UT",0,38.2936859130859,0,-112.637054443359,0,"Beaver","Merch",1,NA
561,"Hanna                         ","1","Regular             ","1","Merchantable   ","N","N",40.4490432739258,-110.829406738281,NA,1,0,NA,NA,NA,NA,"Hanna","UT",0,40.4490432739258,0,-110.829406738281,0,"Duchesne","Merch",1,NA
562,"Hyde Park                     ","1","Regular             ","1","Merchantable   ","N","N",41.8050651550293,-111.813064575195,NA,1,0,NA,NA,NA,NA,"Hyde Park","UT",0,41.8050651550293,0,-111.813064575195,0,"Cache","Merch",1,NA
563,"Monroe                        ","1","Regular             ","1","Merchantable   ","N","N",38.6399421691895,-112.115089416504,NA,1,0,NA,NA,NA,NA,"Monroe","UT",0,38.6399421691895,0,-112.115089416504,0,"Sevier","Merch",1,NA
564,"Sandy                         ","1","Regular             ","1","Merchantable   ","N","N",40.5721244812012,-111.836471557617,NA,1,0,NA,NA,NA,NA,"Sandy","UT",0,40.5721244812012,0,-111.836471557617,0,"Salt Lake","Merch",1,NA
565,"Vernal                        ","1","Regular             ","1","Merchantable   ","N","N",40.4165382385254,-109.508865356445,NA,1,0,NA,NA,NA,NA,"Vernal","UT",0,40.4165382385254,0,-109.508865356445,0,"Uintah","Merch",1,NA
566,"Wellington                    ","1","Regular             ","1","Merchantable   ","N","N",39.5430374145508,-110.736976623535,NA,1,0,NA,NA,NA,NA,"Wellington","UT",0,39.5430374145508,0,-110.736976623535,0,"Carbon","Merch",1,NA
567,"Mountain View                 ","1","Regular             ","1","Merchantable   ","N","N",41.2821731567383,-110.336311340332,NA,1,0,NA,NA,NA,NA,"Mountain View","WY",0,41.2821731567383,0,-110.336311340332,0,"Uinta","Merch",1,NA
568,"Sheridan                      ","1","Regular             ","1","Merchantable   ","N","N",44.8097496032715,-106.947868347168,NA,1,0,NA,NA,NA,NA,"Sheridan","WY",0,44.8097496032715,0,-106.947868347168,0,"Sheridan","Merch",1,NA
569,"Hulett                        ","1","Regular             ","1","Merchantable   ","N","N",44.6675834655762,-104.613792419434,NA,1,0,NA,NA,NA,NA,"Hulett","WY",0,44.6675834655762,0,-104.613792419434,0,"Crook","Merch",1,NA
570,"Cody                          ","1","Regular             ","1","Merchantable   ","N","N",44.5505790710449,-109.039520263672,NA,1,0,NA,NA,NA,NA,"Cody","WY",0,44.5505790710449,0,-109.039520263672,0,"Park","Merch",1,NA
571,"Buffalo                       ","1","Regular             ","1","Merchantable   ","N","N",44.3536643981934,-106.689102172852,NA,1,0,NA,NA,NA,NA,"Buffalo","WY",0,44.3536643981934,0,-106.689102172852,0,"Johnson","Merch",1,NA
572,"Cora                          ","1","Regular             ","1","Merchantable   ","N","N",41.7986946105957,-110.564239501953,NA,1,0,NA,NA,NA,NA,"Cora","WY",0,41.7986946105957,0,-110.564239501953,0,"Sublette","Merch",1,NA
573,"Evanston                      ","1","Regular             ","1","Merchantable   ","N","N",41.3611106872559,-111.007133483887,NA,1,0,NA,NA,NA,NA,"Evanston","WY",0,41.3611106872559,0,-111.007133483887,0,"Uinta","Merch",1,NA
574,"Meeteetse                     ","1","Regular             ","1","Merchantable   ","N","N",44.1684608459473,-108.88094329834,NA,1,0,NA,NA,NA,NA,"Meeteetse","WY",0,44.1684608459473,0,-108.88094329834,0,"Park","Merch",1,NA
575,"Worland                       ","1","Regular             ","1","Merchantable   ","N","N",44.1394157409668,-107.907958984375,NA,1,0,NA,NA,NA,NA,"Worland","WY",0,44.1394157409668,0,-107.907958984375,0,"Washakie","Merch",1,NA
576,"Crowheart                     ","1","Regular             ","1","Merchantable   ","N","N",43.3970718383789,-109.302574157715,NA,1,0,NA,NA,NA,NA,"Crowheart","WY",0,43.3970718383789,0,-109.302574157715,0,"Fremont","Merch",1,NA
577,"Dubois                        ","1","Regular             ","1","Merchantable   ","N","N",43.5325508117676,-109.630355834961,NA,1,0,NA,NA,NA,NA,"Dubois","WY",0,43.5325508117676,0,-109.630355834961,0,"Fremont","Merch",1,NA
578,"Manderson                     ","1","Regular             ","1","Merchantable   ","N","N",44.2682189941406,-107.963607788086,NA,1,0,NA,NA,NA,NA,"Manderson","WY",0,44.2682189941406,0,-107.963607788086,0,"Big Horn","Merch",1,NA
579,"Pinedale                      ","1","Regular             ","1","Merchantable   ","N","N",42.8530120849609,-109.920768737793,NA,1,0,NA,NA,NA,NA,"Pinedale","WY",0,42.8530120849609,0,-109.920768737793,0,"Sublette","Merch",1,NA
580,"Haines                        ","1","Regular             ","1","Merchantable   ","N","N",44.9060440063477,-117.934616088867,NA,1,0,NA,NA,NA,NA,"Haines","OR",0,44.9060440063477,0,-117.934616088867,0,"Baker","Merch",1,NA
581,"Umatilla                      ","1","Regular             ","1","Merchantable   ","N","N",45.9050636291504,-119.304344177246,NA,1,0,NA,NA,NA,NA,"Umatilla","OR",0,45.9050636291504,0,-119.304344177246,0,"Umatilla","Merch",1,NA
582,"Adams                         ","1","Regular             ","1","Merchantable   ","N","N",45.7516784667969,-118.580390930176,NA,1,0,NA,NA,NA,NA,"Adams","OR",0,45.7516784667969,0,-118.580390930176,0,"Umatilla","Merch",1,NA
583,"La Grande                     ","1","Regular             ","1","Merchantable   ","N","N",45.335563659668,-118.095008850098,NA,1,0,NA,NA,NA,NA,"La Grande","OR",0,45.335563659668,0,-118.095008850098,0,"Union","Merch",1,NA
584,"Elgin                         ","1","Regular             ","1","Merchantable   ","N","N",45.5832023620605,-117.928405761719,NA,1,0,NA,NA,NA,NA,"Elgin","OR",0,45.5832023620605,0,-117.928405761719,0,"Union","Merch",1,NA
585,"Pilot Rock                    ","1","Regular             ","1","Merchantable   ","N","N",45.4861755371094,-118.822067260742,NA,1,0,NA,NA,NA,NA,"Pilot Rock","OR",0,45.4861755371094,0,-118.822067260742,0,"Umatilla","Merch",1,NA
586,"Pendleton                     ","1","Regular             ","1","Merchantable   ","N","N",45.6690216064453,-118.804008483887,NA,1,0,NA,NA,NA,NA,"Pendleton","OR",0,45.6690216064453,0,-118.804008483887,0,"Umatilla","Merch",1,NA
587,"Joseph                        ","1","Regular             ","1","Merchantable   ","N","N",45.3426208496094,-117.186729431152,NA,1,0,NA,NA,NA,NA,"Joseph","OR",0,45.3426208496094,0,-117.186729431152,0,"Wallowa","Merch",1,NA
186,"Dover Resources               ","1","Regular             ","2","Energy         ","N","N",37.9550132751465,-121.357734680176,NA,1,0,NA,"Sawdust / Shavings / Chips","Pellets",NA,"Stockton","CA",37.956346,37.9550132751465,-121.362798,-121.357734680176,1,NA,"Pellet Mill",2,NA
168,"Murphy Softwood Plywood Plant ","1","Regular             ","1","Merchantable   ","Y","N",42.4251365661621,-123.161827087402,"Open",1,0,NA,"Veneer",NA,NA,NA,"OR",42.424954,42.4251365661621,-123.162117,-123.161827087402,2,NA,NA,1,NA
8,"SPI Anderson Pole Peeler Plant","1","Regular             ","3","Both           ","N","N",40.4717254638672,-122.32056427002,"Closed",0,0,"Sierra Pacific Industries","Logs","Post/Pole","Douglas-fir- Ponderosa Pine- Incense Cedar- Hemlock-fir- Sugar Pine","Anderson","CA",40.471498,40.4717254638672,-122.320991,-122.32056427002,1,NA,"Pole Peeler",3,NA
108,"Southern Oregon Post & Pole   ","1","Regular             ","3","Both           ","N","N",42.0430793762207,-121.871948242188,"Liquidated",0,0,NA,"Logs",NA,NA,"Klamath Falls","OR",42.04369796,42.0430793762207,-121.8719792,-121.871948242188,1,NA,"Pole Peeler",3,NA
203,"Blue Lake Round Stock         ","1","Regular             ","1","Merchantable   ","Y","N",40.4849891662598,-122.34538269043,"Open",1,0,NA,"Logs","Post/Pole","DF- RW","Anderson","CA",40.484703,40.4849891662598,-122.345292,-122.34538269043,1,NA,"Post/Pole Mill",1,NA
170,"Evergreen Pulp                ","1","Regular             ","3","Both           ","N","N",40.8058586120605,-124.196296691895,"Closed",0,2010,"Louisiana Pacific GPnSimpson ETC","Chips","Pulp",NA,"Samoa","CA",40.80577621,40.8058586120605,-124.1958033,-124.196296691895,1,NA,"Pulp Mill",3,NA
9,"SPI Anderson Sawmill          ","1","Regular             ","1","Merchantable   ","Y","N",40.4717254638672,-122.32056427002,"Open",1,0,"Sierra Pacific Industries","Logs","Lumber","Douglas-fir- Ponderosa Pine- Incense Cedar- Hemlock-fir- Sugar Pine","Anderson","CA",40.471498,40.4717254638672,-122.320991,-122.32056427002,1,NA,"Sawmill",1,NA
19,"Arcata Forest Products Sawmill","1","Regular             ","1","Merchantable   ","Y","N",40.901481628418,-124.071563720703,"Open",1,0,NA,"Logs","Lumber","RW DF","Arcata","CA",40.901169,40.901481628418,-124.071143,-124.071563720703,1,NA,"Sawmill",1,NA
20,"Mad River Lbr. Sawmill        ","1","Regular             ","1","Merchantable   ","Y","N",40.8861389160156,-124.081573486328,"Open",1,0,"Mad River Lumber","Logs","Fence Boards","redwood","Arcata","CA",40.885948,40.8861389160156,-124.081698,-124.081573486328,1,NA,"Sawmill",1,NA
25,"Priority Pallets Sawmill      ","1","Regular             ","1","Merchantable   ","Y","N",33.9253959655762,-116.967987060547,"Open",1,0,"Priority Pallets Sawmill","Logs","Lumber","PP SP WF","Beaumont","CA",33.925539,33.9253959655762,-116.968097,-116.967987060547,1,NA,"Sawmill",1,NA
32,"South Coast Lbr. Veneer & Plyw","1","Regular             ","1","Merchantable   ","Y","N",42.0524749755859,-124.290374755859,"Open",1,0,NA,"Logs","Lumber",NA,"Brookings","OR",42.052701,42.0524749755859,-124.290912,-124.290374755859,1,NA,"Sawmill",1,NA
35,"Shasta Green Sawmill          ","1","Regular             ","1","Merchantable   ","Y","N",40.8783912658691,-121.727249145508,"Open",1,0,"Burney Forest Products( owned by the big valley lumber company)- Big Valley Lumber Mill","Logs","Lumber","Douglas-fir- Ponderosa Pine- Incense Cedar- True Fir","Burney","CA",40.8782226,40.8783912658691,-121.7266623,-121.727249145508,1,NA,"Sawmill",1,NA
36,"SPI Burney Sawmill            ","1","Regular             ","1","Merchantable   ","Y","N",40.876522064209,-121.700485229492,"Open",1,0,"Scott Lumber- Publishers","Logs","Lumber","Douglas-fir- Ponderosa Pine- Incense Cedar- Hemlock- Sugar Pine","Burney","CA",40.876365,40.876522064209,-121.701786,-121.700485229492,1,NA,"Sawmill",1,NA
45,"Berry's Sawmill               ","1","Regular             ","1","Merchantable   ","Y","N",38.4646949768066,-123.040626525879,"Open",1,0,"Berry Sawmill & Lumber Yard","Logs","Lumber","RW- DF","Cazadero","CA",38.46454832,38.4646949768066,-123.0410353,-123.040626525879,1,NA,"Sawmill",1,NA
47,"Collins Chester Sawmill       ","1","Regular             ","1","Merchantable   ","Y","N",40.3035545349121,-121.24089050293,"Open",1,0,"Collins Pine Co","Logs","Lumber","Douglas-fir- Ponderosa Pine- Incense Cedar- true fir- Hemlock- Sugar Pine","Chester","CA",40.30330794,40.3035545349121,-121.2413703,-121.24089050293,1,NA,"Sawmill",1,NA
49,"SPI Chinese Camp Sawmill      ","1","Regular             ","1","Merchantable   ","Y","N",37.8828277587891,-120.454132080078,"Open",1,0,"Sierra Pacific Industries","Logs","Fence Boards","IC- WF","Chinese Camp","CA",37.88282739,37.8828277587891,-120.4536966,-120.454132080078,1,NA,"Sawmill",1,NA
55,"Redwood Empire (Cloverdale)   ","1","Regular             ","1","Merchantable   ","Y","N",38.820930480957,-123.018928527832,"Open",1,0,"Preston Lumber Corporation (Cloverdale Plant)- Richardson Lumber","Logs","Lumber","Redwood- Douglas-fir- Hemlock","Cloverdale","CA",38.820891,38.820930480957,-123.018623,-123.018928527832,1,NA,"Sawmill",1,NA
66,"Big Creek Lbr. Co. Sawmill    ","1","Regular             ","1","Merchantable   ","Y","N",37.0898818969727,-122.272972106934,"Open",1,0,"Big Creek Lumber Co","Logs","Lumber","DF- Redwood","Davenport","CA",37.090154,37.0898818969727,-122.273326,-122.272972106934,1,NA,"Sawmill",1,NA
74,"Schmidbauer Lbr. Co. Sawmill  ","1","Regular             ","1","Merchantable   ","Y","N",40.7979583740234,-124.181823730469,"Open",1,0,"Schmidbauer Lumber","Logs","Lumber","Redwood- Douglas-fir- Hemlock","Eureka","CA",40.79719014,40.7979583740234,-124.1815646,-124.181823730469,1,NA,"Sawmill",1,NA
92,"Kubich Lumber Co              ","1","Regular             ","1","Merchantable   ","Y","N",39.2381401062012,-121.088989257812,"Open",1,0,NA,"Logs","Lumber","Incense Cedar- Sugar Pine","Grass Valley","CA",39.238323,39.2381401062012,-121.089604,-121.088989257812,1,NA,"Sawmill",1,NA
110,"Jeld-Wen MDF                  ","1","Regular             ","1","Merchantable   ","Y","N",42.2532806396484,-121.806365966797,"Open",1,0,NA,"Logs","Lumber","PP- SP","Klamath Falls","OR",42.25325412,42.2532806396484,-121.8060077,-121.806365966797,1,NA,"Sawmill",1,NA
111,"Jeld-Wen Thomas Lbr. Sawmill  ","1","Regular             ","1","Merchantable   ","Y","N",42.2565841674805,-121.803817749023,"Open",1,0,NA,"Logs","Lumber",NA,"Klamath Falls","OR",42.25647449,42.2565841674805,-121.8046141,-121.803817749023,1,NA,"Sawmill",1,NA
113,"SPI Lincoln Sawmill           ","1","Regular             ","1","Merchantable   ","Y","N",38.9044990539551,-121.306594848633,"Open",1,0,"Bohemia","Logs","Lumber",NA,"Lincoln","CA",38.90448023,38.9044990539551,-121.3070281,-121.306594848633,1,NA,"Sawmill",1,NA
131,"Cedar Creek Horse Logging & Mi","1","Regular             ","1","Merchantable   ","Y","N",39.267333984375,-121.014518737793,"Open",1,0,NA,"Logs","Lumber",NA,"Nevada City","CA",39.267159,39.267333984375,-121.014941,-121.014518737793,1,NA,"Sawmill",1,NA
145,"SPI Oroville Cedar Sawmill    ","1","Regular             ","1","Merchantable   ","Y","N",39.4816665649414,-121.563568115234,"Open",1,0,NA,"Logs","Lumber",NA,"Oroville","CA",39.48193681,39.4816665649414,-121.5632263,-121.563568115234,1,NA,"Sawmill",1,NA
155,"SPI Quincy Sawmill            ","1","Regular             ","1","Merchantable   ","Y","N",39.9388771057129,-120.911582946777,"Open",1,0,"Sierra Pacific Industries - Quincy Station","Logs","Lumber",NA,"Quincy","CA",39.93866858,39.9388771057129,-120.9112616,-120.911582946777,1,NA,"Sawmill",1,NA
174,"Humboldt Redwood Co. Sawmill  ","1","Regular             ","1","Merchantable   ","Y","N",40.4837875366211,-124.102424621582,"Open",1,0,"Pacific Lumber Com Scotia CA","Logs","Lumber","DF- Redwood","Scotia","CA",40.483615,40.4837875366211,-124.102748,-124.102424621582,1,NA,"Sawmill",1,NA
176,"SPI Shasta Lake Sawmill       ","1","Regular             ","1","Merchantable   ","Y","N",40.6760787963867,-122.380828857422,"Open",1,0,"Sierra Pacific Industries","Logs","Lumber",NA,"Shasta Lake","CA",40.675837,40.6760787963867,-122.380149,-122.380828857422,1,NA,"Sawmill",1,NA
184,"SPI Sonora Sawmill            ","1","Regular             ","1","Merchantable   ","Y","N",37.963264465332,-120.317443847656,"Open",1,0,"Fibreboard Louisiana Pacific","Logs","Lumber","Douglas-fir- Ponderosa Pine- Incense Cedar- Hemlock- Sugar Pine","Sonora","CA",37.96333505,37.963264465332,-120.3174788,-120.317443847656,1,NA,"Sawmill",1,NA
191,"Sierra Forest Products Sawmill","1","Regular             ","1","Merchantable   ","Y","N",35.9544792175293,-119.049247741699,"Open",1,0,"Sierra Forest Products","Logs","Lumber","PP- WF- SP- LPP- IC","Terra Bella","CA",35.95409644,35.9544792175293,-119.0489178,-119.049247741699,1,NA,"Sawmill",1,NA
202,"Agwood Mill & Lbr.            ","1","Regular             ","1","Merchantable   ","Y","N",39.1792793273926,-123.203582763672,"Open",1,0,"Agwood Mill & Lumber Inc","Logs","Lumber","DF- redwood","Ukiah","CA",39.17958875,39.1792793273926,-123.2036368,-123.203582763672,1,NA,"Sawmill",1,NA
204,"Mendocino Forest Products Sawm","1","Regular             ","1","Merchantable   ","Y","N",39.1838111877441,-123.204116821289,"Open",1,0,"Palco LP","Logs","Lumber","RW- DF","Ukiah","CA",39.183738,39.1838111877441,-123.203868,-123.204116821289,1,NA,"Sawmill",1,NA
207,"Trinity River Lbr Co. Sawmill ","1","Regular             ","1","Merchantable   ","Y","N",40.724723815918,-122.931091308594,"Open",1,0,"Trinity River Lumber Co","Logs","Lumber","DF","Weaverville","CA",40.72493045,40.724723815918,-122.9306377,-122.931091308594,1,NA,"Sawmill",1,NA
210,"Murphy Co. Plywood Layup      ","1","Regular             ","1","Merchantable   ","Y","N",42.4329566955566,-122.859146118164,"Open",1,0,NA,"Logs",NA,NA,"White City","OR",42.43270557,42.4329566955566,-122.8592083,-122.859146118164,1,NA,"Sawmill",1,NA
212,"Timber Products Co. Particle B","1","Regular             ","1","Merchantable   ","Y","N",42.4351463317871,-122.866386413574,"Open",1,0,NA,"Logs",NA,NA,"White City","OR",42.435871,42.4351463317871,-122.866862,-122.866386413574,1,NA,"Sawmill",1,NA
216,"Willits Redwood Sawmill       ","1","Regular             ","1","Merchantable   ","Y","N",39.4030303955078,-123.358543395996,"Open",1,0,"Willits Redwood Co harrah lumber","Logs","Lumber","redwood- DF","Willits","CA",39.403232,39.4030303955078,-123.358427,-123.358543395996,1,NA,"Sawmill",1,NA
223,"Fruit Growers Supply Co. Sawmi","1","Regular             ","1","Merchantable   ","Y","N",41.7309455871582,-122.593231201172,"Open",1,0,"Hi-Ridge","Logs","Lumber","PP- DF- WF- LPP","Yreka","CA",41.73064723,41.7309455871582,-122.5929565,-122.593231201172,1,NA,"Sawmill",1,NA
1,"Big Valley Lumber             ","1","Regular             ","1","Merchantable   ","N","N",41.2002105712891,-120.941596984863,"Closed",0,1994,"Edgerton Lumber Co","Logs",NA,NA,"Adin","CA",41.199896,41.2002105712891,-120.941497,-120.941596984863,1,NA,"Sawmill",1,NA
2,"Louisiana Pacific (Alderpoint)","1","Regular             ","1","Merchantable   ","N","N",40.1589851379395,-123.602592468262,"Closed",0,1987,"Georgia Pacific E.A. Reynolds Mill and Lumber","Logs",NA,NA,"Alderpoint","CA",40.158935,40.1589851379395,-123.602894,-123.602592468262,1,NA,"Sawmill",1,NA
3,"WTD Industries                ","1","Regular             ","1","Merchantable   ","N","N",41.4852676391602,-120.575424194336,"Closed",0,1992,NA,"Logs","Lumber",NA,"Alturas","CA",41.485402,41.4852676391602,-120.57697,-120.575424194336,1,NA,"Sawmill",1,NA
4,"Champion International (Anders","1","Regular             ","1","Merchantable   ","N","N",38.6467170715332,-121.384704589844,"Closed",0,1987,"US Plywood","Logs",NA,NA,"Anderson","CA",38.646405,38.6467170715332,-121.385157,-121.384704589844,1,NA,"Sawmill",1,NA
5,"Kimberly-Clark Corporation (An","1","Regular             ","1","Merchantable   ","N","N",40.4329109191895,-122.267562866211,"Closed",0,1981,NA,"Logs",NA,NA,"Anderson","CA",40.432118,40.4329109191895,-122.267298,-122.267562866211,1,NA,"Sawmill",1,NA
6,"P&M Anderson Mill             ","1","Regular             ","1","Merchantable   ","N","N",40.4694023132324,-122.327110290527,"Closed",0,1995,NA,"Logs","Lumber",NA,"Anderson","CA",40.46978,40.4694023132324,-122.327068,-122.327110290527,1,NA,"Sawmill",1,NA
7,"Roseburg Forest Products      ","1","Regular             ","1","Merchantable   ","N","N",40.4366035461426,-122.276374816895,"Closed",0,1993,"Paul Bunyan","Logs","Lumber",NA,"Anderson","CA",40.436626,40.4366035461426,-122.276119,-122.276374816895,1,NA,"Sawmill",1,NA
10,"All-Brite Lumber Company (Arca","1","Regular             ","1","Merchantable   ","N","N",40.867977142334,-124.091667175293,"Closed",0,1976,NA,"Logs",NA,"RW DF","Arcata","CA",40.86811,40.867977142334,-124.092833,-124.091667175293,1,NA,"Sawmill",1,NA
11,"Brightwood Lumber             ","1","Regular             ","1","Merchantable   ","N","N",40.8646125793457,-124.151573181152,"Closed",0,1973,NA,"Logs",NA,NA,"Arcata","CA",40.865432,40.8646125793457,-124.151866,-124.151573181152,1,NA,"Sawmill",1,NA
12,"California Redwood Company (Ko","1","Regular             ","1","Merchantable   ","N","N",40.8719024658203,-123.963249206543,"Closed",0,2015,"Simpson Timber Co.- Korbel- CA","Logs","Lumber","Douglas-fir- Redwood","Arcata","CA",40.87184621,40.8719024658203,-123.9632726,-123.963249206543,1,NA,"Sawmill",1,NA
13,"Combs Lumber                  ","1","Regular             ","1","Merchantable   ","N","N",40.8884010314941,-124.038719177246,"Closed",0,1991,NA,"Logs","Lumber",NA,"Arcata","CA",40.888293,40.8884010314941,-124.038073,-124.038719177246,1,NA,"Sawmill",1,NA
14,"McNord Lumber Company         ","1","Regular             ","1","Merchantable   ","N","N",40.9010238647461,-124.020095825195,"Closed",0,1976,NA,"Logs",NA,NA,"Arcata","CA",40.900502,40.9010238647461,-124.020469,-124.020095825195,1,NA,"Sawmill",1,NA
15,"Trend Lumber                  ","1","Regular             ","1","Merchantable   ","N","N",40.9023971557617,-124.018157958984,"Closed",0,1979,"Tidewater Lumber- Bonnie Sales","Logs",NA,NA,"Arcata","CA",40.902343,40.9023971557617,-124.018458,-124.018157958984,1,NA,"Sawmill",1,NA
16,"Twin Parks Lumber             ","1","Regular             ","1","Merchantable   ","N","N",40.8800468444824,-124.087844848633,"Closed",0,1979,NA,"Logs",NA,NA,"Arcata","CA",40.880272,40.8800468444824,-124.087932,-124.087844848633,1,NA,"Sawmill",1,NA
21,"SPI Arcata Sawmill            ","1","Regular             ","1","Merchantable   ","N","N",40.8643531799316,-124.152717590332,"Closed",0,2016,"Sierra Pacific Industries","Logs","Lumber","Douglas-fir Ponderosa Pine Incense Cedar True fir","Arcata","CA",40.865848,40.8643531799316,-124.152849,-124.152717590332,1,NA,"Sawmill",1,NA
22,"Heyrend Lumber Co.            ","1","Regular             ","1","Merchantable   ","N","N",39.6240234375,-122.19384765625,"Closed",0,1993,NA,"Logs","Lumber",NA,"Artois","CA",39.624125,39.6240234375,-122.193279,-122.19384765625,1,NA,"Sawmill",1,NA
23,"Sequoia Forest Products       ","1","Regular             ","1","Merchantable   ","N","N",37.0656623840332,-119.492691040039,"Closed",0,1995,NA,"Logs","Lumber",NA,"Auberry","CA",37.066082,37.0656623840332,-119.492324,-119.492691040039,1,NA,"Sawmill",1,NA
24,"Di Giorgio Corporation (Auburn","1","Regular             ","1","Merchantable   ","N","N",38.9312324523926,-121.089279174805,"Closed",0,1974,"Cal Ida Lumber","Logs",NA,NA,"Auburn","CA",38.931531,38.9312324523926,-121.089078,-121.089279174805,1,NA,"Sawmill",1,NA
26,"Big Valley Lumber Company     ","1","Regular             ","1","Merchantable   ","N","N",41.1316757202148,-121.135704040527,"Closed",0,2001,NA,"Logs","Lumber",NA,"Bieber","CA",41.131333,41.1316757202148,-121.136074,-121.135704040527,1,NA,"Sawmill",1,NA
27,"WIPE adin lumber              ","1","Regular             ","1","Merchantable   ","N","N",41.12158203125,-121.144462585449,"Closed",0,1989,NA,"Logs","Lumber",NA,"Bieber","CA",41.121416,41.12158203125,-121.143839,-121.144462585449,1,NA,"Sawmill",1,NA
28,"Mcintosh Lumber               ","1","Regular             ","1","Merchantable   ","N","N",40.877571105957,-123.991798400879,"Closed",0,1980,NA,"Logs",NA,NA,"Blue Lake","CA",40.877484,40.877571105957,-123.992778,-123.991798400879,1,NA,"Sawmill",1,NA
29,"Chenoweth Lumber Company      ","1","Regular             ","1","Merchantable   ","N","N",38.354549407959,-122.980865478516,"Closed",0,1978,NA,"Logs",NA,NA,"Bodega","CA",38.354315,38.354549407959,-122.980987,-122.980865478516,1,NA,"Sawmill",1,NA
30,"Santa Cruz Lumber             ","1","Regular             ","1","Merchantable   ","N","N",37.2146110534668,-122.175025939941,"Closed",0,1973,NA,"Logs",NA,NA,"Boulder Creek","CA",37.215181,37.2146110534668,-122.175363,-122.175025939941,1,NA,"Sawmill",1,NA
33,"Fibreboard Corporation (Burney","1","Regular             ","1","Merchantable   ","N","N",40.9893760681152,-121.620613098145,"Closed",0,1979,"Lorenz Lumber","Logs",NA,NA,"Burney","CA",40.989058,40.9893760681152,-121.621071,-121.620613098145,1,NA,"Sawmill",1,NA
34,"Louisiana Pacific (Burney)    ","1","Regular             ","1","Merchantable   ","N","N",40.9893760681152,-121.620613098145,"Closed",0,1990,"Lorenz FibreBoard","Logs","Lumber",NA,"Burney","CA",40.989629,40.9893760681152,-121.621078,-121.620613098145,1,NA,"Sawmill",1,NA
37,"Stone Forest Products (Burnt R","1","Regular             ","1","Merchantable   ","N","N",40.8072357177734,-123.474082946777,"Closed",0,1989,"Southwest Forest Industries","Logs","Lumber",NA,"Burnt Ranch","CA",40.806801,40.8072357177734,-123.474496,-123.474082946777,1,NA,"Sawmill",1,NA
38,"Hjertager- E.J. & Son Lumber  ","1","Regular             ","1","Merchantable   ","N","N",41.3192481994629,-122.809661865234,"Closed",0,1974,NA,"Logs",NA,NA,"Callahan","CA",41.318858,41.3192481994629,-122.80933,-122.809661865234,1,NA,"Sawmill",1,NA
39,"Timber Realization Company    ","1","Regular             ","1","Merchantable   ","N","N",39.2376365661621,-123.200500488281,"Closed",0,1990,NA,"Logs","Lumber",NA,"Calpella","CA",39.238004,39.2376365661621,-123.200771,-123.200500488281,1,NA,"Sawmill",1,NA
40,"SPI Camino Sawmill            ","1","Regular             ","1","Merchantable   ","N","N",38.7389259338379,-120.68140411377,"Closed",0,0,"Michigan California Lumber Company","Logs","Lumber","Douglas-fir- Ponderosa Pine- Incense Cedar- Hemlock- Sugar Pine","Camino","CA",38.738874,38.7389259338379,-120.681931,-120.68140411377,1,NA,"Sawmill",1,NA
41,"Pacific Rim Forest Products   ","1","Regular             ","1","Merchantable   ","N","N",41.4435844421387,-120.871276855469,"Closed",0,2002,NA,"Logs","Lumber",NA,"Canby","CA",41.444029,41.4435844421387,-120.870942,-120.871276855469,1,NA,"Sawmill",1,NA
42,"Carlotta Lumber Company       ","1","Regular             ","1","Merchantable   ","N","N",40.5350341796875,-124.065994262695,"Closed",0,1986,NA,"Logs",NA,NA,"Carlotta","CA",40.535639,40.5350341796875,-124.066792,-124.065994262695,1,NA,"Sawmill",1,NA
43,"Pacific Lumber Company        ","1","Regular             ","1","Merchantable   ","N","N",40.5347747802734,-124.067138671875,"Closed",0,2010,NA,"Logs","Lumber",NA,"Carlotta","CA",40.535207,40.5347747802734,-124.066696,-124.067138671875,1,NA,"Sawmill",1,NA
44,"Rough & Ready Lbr. Co.        ","1","Regular             ","1","Merchantable   ","N","N",42.1055526733398,-123.678985595703,"Closed",0,2016,NA,"Logs","Lumber","PP- DF (no WF or IC)","Cave Junction","OR",42.10528814,42.1055526733398,-123.6787754,-123.678985595703,1,NA,"Sawmill",1,NA
46,"Surprise Valley Lumber Co.    ","1","Regular             ","1","Merchantable   ","N","N",41.5328369140625,-120.182960510254,"Closed",0,1996,NA,"Logs","Lumber",NA,"Cedarville","CA",41.532792,41.5328369140625,-120.182516,-120.182960510254,1,NA,"Sawmill",1,NA
48,"SPI Chico Sawmill             ","1","Regular             ","1","Merchantable   ","N","N",40.017951965332,-121.712829589844,"Closed",0,1986,"Butte Lumber Company- Webco Lumber","Logs",NA,NA,"Chico","CA",40.018018,40.017951965332,-121.713338,-121.712829589844,1,NA,"Sawmill",1,NA
50,"Barnes Lumber                 ","1","Regular             ","1","Merchantable   ","N","N",38.81982421875,-123.019721984863,"Closed",0,1974,NA,"Logs",NA,NA,"Cloverdale","CA",38.819887,38.81982421875,-123.020247,-123.019721984863,1,NA,"Sawmill",1,NA
51,"G&R Lumber                    ","1","Regular             ","1","Merchantable   ","N","N",38.8222885131836,-123.017021179199,"Closed",0,1983,NA,"Logs",NA,NA,"Cloverdale","CA",38.822357,38.8222885131836,-123.017224,-123.017021179199,1,NA,"Sawmill",1,NA
52,"Louisiana Pacific (Cloverdale)","1","Regular             ","1","Merchantable   ","N","N",38.786319732666,-123.00333404541,"Closed",0,1993,NA,"Logs","Lumber",NA,"Cloverdale","CA",38.785937,38.786319732666,-123.002653,-123.00333404541,1,NA,"Sawmill",1,NA
53,"Masonite (Cloverdale)         ","1","Regular             ","1","Merchantable   ","N","N",38.7788238525391,-123.007743835449,"Closed",0,1983,"Molalla Forest Products","Logs",NA,NA,"Cloverdale","CA",38.779133,38.7788238525391,-123.008295,-123.007743835449,1,NA,"Sawmill",1,NA
54,"Preston Lumber Corporation    ","1","Regular             ","1","Merchantable   ","N","N",38.8289260864258,-123.012283325195,"Closed",0,1996,"Richardson Lumber Davies Lumber","Logs",NA,NA,"Cloverdale","CA",38.829085,38.8289260864258,-123.01282,-123.012283325195,1,NA,"Sawmill",1,NA
56,"Emmert Forest Products        ","1","Regular             ","1","Merchantable   ","N","N",36.8709983825684,-119.748107910156,"Closed",0,1975,NA,"Logs",NA,NA,"Clovis","CA",36.871047,36.8709983825684,-119.747674,-119.748107910156,1,NA,"Sawmill",1,NA
57,"B&T Lumber                    ","1","Regular             ","1","Merchantable   ","N","N",39.7925987243652,-123.247901916504,"Closed",0,1975,NA,"Logs",NA,NA,"Covelo","CA",39.79271,39.7925987243652,-123.247404,-123.247901916504,1,NA,"Sawmill",1,NA
58,"Louisiana Pacific (Covelo)    ","1","Regular             ","1","Merchantable   ","N","N",39.8177452087402,-123.206085205078,"Closed",0,1993,NA,"Logs","Lumber",NA,"Covelo","CA",39.8174833,39.8177452087402,-123.20695,-123.206085205078,1,NA,"Sawmill",1,NA
59,"B&R Sawmills Inc              ","1","Regular             ","1","Merchantable   ","N","N",41.7907447814941,-124.186592102051,"Closed",0,1974,NA,"Logs",NA,NA,"Crescent City","CA",41.791097,41.7907447814941,-124.18658,-124.186592102051,1,NA,"Sawmill",1,NA
61,"McNamara & Peepe Lumber (Cresc","1","Regular             ","1","Merchantable   ","N","N",41.7566528320312,-124.192733764648,"Closed",0,1987,NA,"Logs",NA,NA,"Crescent City","CA",41.75699,41.7566528320312,-124.192585,-124.192733764648,1,NA,"Sawmill",1,NA
62,"Miller Redwood                ","1","Regular             ","1","Merchantable   ","N","N",41.7353286743164,-124.096542358398,"Closed",0,1995,NA,"Logs","Lumber",NA,"Crescent City","CA",41.735486,41.7353286743164,-124.097305,-124.096542358398,1,NA,"Sawmill",1,NA
63,"Northcrest                    ","1","Regular             ","1","Merchantable   ","N","N",41.793571472168,-124.186492919922,"Closed",0,1987,NA,"Logs",NA,NA,"Crescent City","CA",41.793081,41.793571472168,-124.1869,-124.186492919922,1,NA,"Sawmill",1,NA
64,"Louisiana Pacific (SIerra Divi","1","Regular             ","1","Merchantable   ","N","N",40.0943336486816,-120.910530090332,"Closed",0,1987,NA,"Logs",NA,NA,"Crescent Mills","CA",40.094476,40.0943336486816,-120.910126,-120.910530090332,1,NA,"Sawmill",1,NA
65,"SPI Sloat Sawmill             ","1","Regular             ","1","Merchantable   ","N","N",39.8634147644043,-120.727340698242,"Closed",0,1992,"DG Shelter Products Feather River Lumber","Logs","Lumber",NA,"Cromberg","CA",39.863124,39.8634147644043,-120.72771,-120.727340698242,1,NA,"Sawmill",1,NA
67,"Bendix Forest Products        ","1","Regular             ","1","Merchantable   ","N","N",37.0649261474609,-119.164756774902,"Closed",0,1983,"American Forest Products","Logs",NA,NA,"Dinkey Creek","CA",37.064993,37.0649261474609,-119.164668,-119.164756774902,1,NA,"Sawmill",1,NA
68,"Louisiana Pacific (Dinsmore)  ","1","Regular             ","1","Merchantable   ","N","N",40.4906425476074,-123.606826782227,"Closed",0,1978,"LP","Logs",NA,NA,"Dinsmore","CA",40.490737,40.4906425476074,-123.607094,-123.606826782227,1,NA,"Sawmill",1,NA
69,"Sequoia Forest Products       ","1","Regular             ","1","Merchantable   ","N","N",36.5711250305176,-119.419906616211,"Closed",0,2001,NA,"Logs","Lumber",NA,"Dinuba/Reedley","CA",36.569581,36.5711250305176,-119.418984,-119.419906616211,1,NA,"Sawmill",1,NA
70,"American Forest Products (Dorr","1","Regular             ","1","Merchantable   ","N","N",41.9605255126953,-121.921356201172,"Closed",0,1973,NA,"Logs",NA,NA,"Dorris","CA",41.960639,41.9605255126953,-121.921862,-121.921356201172,1,NA,"Sawmill",1,NA
72,"Wetsel-Oviatt Lumber          ","1","Regular             ","1","Merchantable   ","N","N",38.605110168457,-121.057594299316,"Closed",0,1987,"Golden State building Products","Logs",NA,NA,"El Dorado Hills","CA",38.605372,38.605110168457,-121.057521,-121.057594299316,1,NA,"Sawmill",1,NA
75,"Pozun Brothers                ","1","Regular             ","1","Merchantable   ","N","N",40.7257957458496,-124.219749450684,"Closed",0,1977,NA,"Logs",NA,NA,"Fields Landing","CA",40.726151,40.7257957458496,-124.219677,-124.219749450684,1,NA,"Sawmill",1,NA
76,"Georgia Pacific               ","1","Regular             ","1","Merchantable   ","N","N",39.0195693969727,-120.830741882324,"Closed",0,1994,"American Forest Products","Logs","Lumber",NA,"Foresthill","CA",39.019667,39.0195693969727,-120.830309,-120.830741882324,1,NA,"Sawmill",1,NA
77,"Eastlick Mills                ","1","Regular             ","1","Merchantable   ","N","N",41.6076812744141,-122.839706420898,"Closed",0,1971,NA,"Logs",NA,NA,"Fort Jones","CA",41.607549,41.6076812744141,-122.840245,-122.839706420898,1,NA,"Sawmill",1,NA
78,"Crown Redwood                 ","1","Regular             ","1","Merchantable   ","N","N",40.5964622497559,-124.160705566406,"Closed",0,1977,NA,"Logs",NA,NA,"Fortuna","CA",40.596786,40.5964622497559,-124.160365,-124.160705566406,1,NA,"Sawmill",1,NA
79,"CW Mills                      ","1","Regular             ","1","Merchantable   ","N","N",40.5577774047852,-124.146194458008,"Closed",0,1995,NA,"Logs","Lumber",NA,"Fortuna","CA",40.557569,40.5577774047852,-124.145619,-124.146194458008,1,NA,"Sawmill",1,NA
80,"Eel River (Alton)             ","1","Regular             ","1","Merchantable   ","N","N",40.5459823608398,-124.120231628418,"Closed",0,1991,NA,"Logs","Lumber",NA,"Fortuna","CA",40.545985,40.5459823608398,-124.120544,-124.120231628418,1,NA,"Sawmill",1,NA
81,"Eel River (Mill A)            ","1","Regular             ","1","Merchantable   ","N","N",40.5133018493652,-124.124366760254,"Closed",0,2007,NA,"Logs","Lumber","Redwood- Douglas-fir- Hemlock","Fortuna","CA",40.513799,40.5133018493652,-124.124075,-124.124366760254,1,NA,"Sawmill",1,NA
82,"Eel River Sawmills            ","1","Regular             ","1","Merchantable   ","N","N",40.3972396850586,-123.941909790039,"Closed",0,1987,NA,"Logs",NA,NA,"Fortuna","CA",40.396941,40.3972396850586,-123.941662,-123.941909790039,1,NA,"Sawmill",1,NA
83,"Enevoldsen Lumber             ","1","Regular             ","1","Merchantable   ","N","N",40.5399894714355,-124.146423339844,"Closed",0,1975,NA,"Logs",NA,NA,"Fortuna","CA",40.539708,40.5399894714355,-124.146753,-124.146423339844,1,NA,"Sawmill",1,NA
84,"Pacific Lumber Company        ","1","Regular             ","1","Merchantable   ","N","N",40.5881118774414,-124.152320861816,"Closed",0,2003,NA,"Logs","Lumber",NA,"Fortuna","CA",40.587407,40.5881118774414,-124.152061,-124.152320861816,1,NA,"Sawmill",1,NA
85,"Wickes Forest Industries (Fres","1","Regular             ","1","Merchantable   ","N","N",36.8164596557617,-119.744468688965,"Closed",0,1982,"Emert Forest Products","Logs",NA,NA,"Fresno","CA",36.816843,36.8164596557617,-119.745069,-119.744468688965,1,NA,"Sawmill",1,NA
86,"Georgia Pacific               ","1","Regular             ","1","Merchantable   ","N","N",39.4457473754883,-123.809646606445,"Closed",0,2002,NA,"Logs","Lumber",NA,"Ft. Bragg","CA",39.444586,39.4457473754883,-123.810007,-123.809646606445,1,NA,"Sawmill",1,NA
87,"Mendocino Forest Products (For","1","Regular             ","1","Merchantable   ","N","N",39.3832740783691,-123.805732727051,"Closed",0,2004,"Georgia Pacific- Louisiana Pacific","Logs","Lumber",NA,"Ft. Bragg","CA",39.383489,39.3832740783691,-123.806113,-123.805732727051,1,NA,"Sawmill",1,NA
88,"Butler Forest Products        ","1","Regular             ","1","Merchantable   ","N","N",41.5801658630371,-122.703125,"Closed",0,1997,NA,"Logs","Lumber",NA,"Ft. Jones","CA",41.579787,41.5801658630371,-122.70358,-122.703125,1,NA,"Sawmill",1,NA
89,"Bohemia *                     ","1","Regular             ","1","Merchantable   ","N","N",39.2106056213379,-121.016288757324,"Closed",0,1992,NA,"Logs","Lumber",NA,"Grass Valley","CA",39.210572,39.2106056213379,-121.016481,-121.016288757324,1,NA,"Sawmill",1,NA
90,"Brunswick Timber Products (Gra","1","Regular             ","1","Merchantable   ","N","N",38.7986030578613,-120.723709106445,"Closed",0,1987,NA,"Logs",NA,NA,"Grass Valley","CA",38.79857,38.7986030578613,-120.722425,-120.723709106445,1,NA,"Sawmill",1,NA
91,"Robinson Timber               ","1","Regular             ","1","Merchantable   ","N","N",39.2461585998535,-121.027633666992,"Closed",0,1978,NA,"Logs",NA,NA,"Grass Valley","CA",39.246695,39.2461585998535,-121.028033,-121.027633666992,1,NA,"Sawmill",1,NA
93,"Louisiana Pacific (Oroville)  ","1","Regular             ","1","Merchantable   ","N","N",40.1477890014648,-120.961441040039,"Closed",0,1981,"Cheney California Lumber Company","Logs",NA,NA,"Greenville","CA",40.147467,40.1477890014648,-120.96181,-120.961441040039,1,NA,"Sawmill",1,NA
94,"Stone Forest Products (Happy C","1","Regular             ","1","Merchantable   ","N","N",41.800666809082,-123.36792755127,"Closed",0,1993,"Southwest Forest Industries","Logs","Lumber",NA,"Happy Camp","CA",41.800375,41.800666809082,-123.36769,-123.36792755127,1,NA,"Sawmill",1,NA
95,"SPI Hayfork Sawmill           ","1","Regular             ","1","Merchantable   ","N","N",40.5501861572266,-123.14616394043,"Closed",0,1997,NA,"Logs","Lumber",NA,"Hayfork","CA",40.55016,40.5501861572266,-123.146741,-123.14616394043,1,NA,"Sawmill",1,NA
96,"Idaco Lumber                  ","1","Regular             ","1","Merchantable   ","N","N",38.6449279785156,-122.871147155762,"Closed",0,1974,NA,"Logs",NA,NA,"Healdsburg","CA",38.644977,38.6449279785156,-122.871164,-122.871147155762,1,NA,"Sawmill",1,NA
97,"Sonoma Wood Products          ","1","Regular             ","1","Merchantable   ","N","N",38.6073150634766,-122.869018554688,"Closed",0,1976,NA,"Logs",NA,NA,"Healdsburg","CA",38.607239,38.6073150634766,-122.868822,-122.869018554688,1,NA,"Sawmill",1,NA
98,"McKeen Sawmill                ","1","Regular             ","1","Merchantable   ","N","N",34.1112670898438,-117.187942504883,"Closed",0,1971,NA,"Logs",NA,NA,"Highland","CA",34.110925,34.1112670898438,-117.188417,-117.187942504883,1,NA,"Sawmill",1,NA
99,"Fruit Growers Supply          ","1","Regular             ","1","Merchantable   ","N","N",41.9946212768555,-122.630508422852,"Closed",0,1975,NA,"Logs",NA,NA,"Hilt","CA",41.994425,41.9946212768555,-122.631222,-122.630508422852,1,NA,"Sawmill",1,NA
100,"Cal Pacific Manufacturing (Hoo","1","Regular             ","1","Merchantable   ","N","N",41.0341758728027,-123.65608215332,"Closed",0,1983,NA,"Logs",NA,NA,"Hoopa","CA",41.034418,41.0341758728027,-123.655912,-123.65608215332,1,NA,"Sawmill",1,NA
101,"Masonite (Hoopa)              ","1","Regular             ","1","Merchantable   ","N","N",41.0813179016113,-123.691329956055,"Closed",0,1980,"Humboldt Fir","Logs",NA,NA,"Hoopa","CA",41.081114,41.0813179016113,-123.690886,-123.691329956055,1,NA,"Sawmill",1,NA
102,"Hyampom Lumber                ","1","Regular             ","1","Merchantable   ","N","N",40.6386985778809,-123.49048614502,"Closed",0,1983,NA,"Logs",NA,NA,"Hyampom","CA",40.639,40.6386985778809,-123.491,-123.49048614502,1,NA,"Sawmill",1,NA
103,"Louisiana Pacific (Inyokern)  ","1","Regular             ","1","Merchantable   ","N","N",35.8421592712402,-117.87134552002,"Closed",0,1990,NA,"Logs","Lumber",NA,"Inyokern/Pearsonville","CA",35.842606,35.8421592712402,-117.870542,-117.87134552002,1,NA,"Sawmill",1,NA
106,"American Forest Products      ","1","Regular             ","1","Merchantable   ","N","N",35.9744720458984,-118.537078857422,"Closed",0,1980,NA,"Logs",NA,NA,"Johnsondale","CA",35.97497,35.9744720458984,-118.536671,-118.537078857422,1,NA,"Sawmill",1,NA
107,"Simpson Timber (klamath)      ","1","Regular             ","1","Merchantable   ","N","N",41.5275459289551,-124.023658752441,"Closed",0,1987,NA,"Logs",NA,NA,"Klamath","CA",41.527335,41.5275459289551,-124.023576,-124.023658752441,1,NA,"Sawmill",1,NA
112,"Philo Lumber (Laytonville)    ","1","Regular             ","1","Merchantable   ","N","N",39.6743621826172,-123.504981994629,"Closed",0,1983,NA,"Logs",NA,NA,"Laytonville","CA",39.674002,39.6743621826172,-123.505147,-123.504981994629,1,NA,"Sawmill",1,NA
114,"Little Valley Lumber (Trin-Co ","1","Regular             ","1","Merchantable   ","N","N",40.8961944580078,-121.179183959961,"Closed",0,1983,NA,"Logs",NA,NA,"Little Valley","CA",40.896022,40.8961944580078,-121.179221,-121.179183959961,1,NA,"Sawmill",1,NA
115,"State Box Company             ","1","Regular             ","1","Merchantable   ","N","N",40.8940734863281,-121.175933837891,"Closed",0,1976,NA,"Logs",NA,NA,"Little Valley","CA",40.893913,40.8940734863281,-121.175403,-121.175933837891,1,NA,"Sawmill",1,NA
116,"SPI Loyalton Sawmill          ","1","Regular             ","1","Merchantable   ","N","N",39.6700325012207,-120.239845275879,"Closed",0,2002,NA,"Logs","Lumber",NA,"Loyalton","CA",39.669485,39.6700325012207,-120.240116,-120.239845275879,1,NA,"Sawmill",1,NA
117,"Norby Lumber Co.              ","1","Regular             ","1","Merchantable   ","N","N",36.9190711975098,-119.970726013184,"Closed",0,1996,NA,"Logs","Lumber",NA,"Madera","CA",36.918092,36.9190711975098,-119.973046,-119.970726013184,1,NA,"Sawmill",1,NA
118,"Scott Lumber                  ","1","Regular             ","1","Merchantable   ","N","N",37.5659332275391,-119.860870361328,"Closed",0,1978,NA,"Logs",NA,NA,"Mariposa","CA",37.565468,37.5659332275391,-119.861224,-119.860870361328,1,NA,"Sawmill",1,NA
120,"Georgia Pacific               ","1","Regular             ","1","Merchantable   ","N","N",38.3706283569336,-120.806945800781,"Closed",0,1998,"American Forest Products","Logs","Lumber",NA,"Martell/Jackson","CA",38.367368,38.3706283569336,-120.808209,-120.806945800781,1,NA,"Sawmill",1,NA
121,"Feather River Forest Products ","1","Regular             ","1","Merchantable   ","N","N",39.1291007995605,-121.57202911377,"Closed",0,1993,NA,"Logs","Lumber",NA,"Marysville","CA",39.128913,39.1291007995605,-121.572696,-121.57202911377,1,NA,"Sawmill",1,NA
122,"Marysville Forest Products    ","1","Regular             ","1","Merchantable   ","N","N",39.073802947998,-121.518203735352,"Closed",0,1995,"Erickson","Logs","Lumber",NA,"Marysville","CA",39.074678,39.073802947998,-121.51711,-121.518203735352,1,NA,"Sawmill",1,NA
123,"Sierra Cedar Products Sawmill ","1","Regular             ","1","Merchantable   ","N","N",39.1043968200684,-121.561904907227,"Closed",0,2001,"Sierra Cedar Products","Logs","Lumber",NA,"Marysville","CA",39.10472026,39.1043968200684,-121.5615753,-121.561904907227,1,NA,"Sawmill",1,NA
124,"California Cedar Products Comp","1","Regular             ","1","Merchantable   ","N","N",41.2638893127441,-122.124992370605,"Closed",0,2000,"California Cedar Products P&M Cedar Product","Logs","Lumber","IC","McCloud","CA",41.263646,41.2638893127441,-122.124519,-122.124992370605,1,NA,"Sawmill",1,NA
126,"Blue Lake Forest Products     ","1","Regular             ","1","Merchantable   ","N","N",40.8993148803711,-124.019401550293,"Closed",0,2003,NA,"Logs","Lumber",NA,"McKinleyville","CA",40.899185,40.8993148803711,-124.01923,-124.019401550293,1,NA,"Sawmill",1,NA
128,"P&M Mt. Shasta Mill           ","1","Regular             ","1","Merchantable   ","N","N",41.3266868591309,-122.316543579102,"Closed",0,1991,NA,"Logs","Lumber",NA,"Mount Shasta","CA",41.326214,41.3266868591309,-122.316631,-122.316543579102,1,NA,"Sawmill",1,NA
129,"Roseburg Lumber (Mount Shasta)","1","Regular             ","1","Merchantable   ","N","N",41.2969818115234,-122.307670593262,"Closed",0,1987,"Kimberly-Clark Corporation","Logs",NA,NA,"Mount Shasta","CA",41.296848,41.2969818115234,-122.307712,-122.307670593262,1,NA,"Sawmill",1,NA
130,"Georgia Pacific               ","1","Regular             ","1","Merchantable   ","N","N",40.2661933898926,-123.874320983887,"Closed",0,1980,"Morrison & Jackson","Logs",NA,NA,"Myers Flat","CA",40.26599,40.2661933898926,-123.873742,-123.874320983887,1,NA,"Sawmill",1,NA
132,"Sequoia Forest Products       ","1","Regular             ","1","Merchantable   ","N","N",37.2338371276855,-119.494003295898,"Closed",0,1995,NA,"Logs","Lumber",NA,"North Fork","CA",37.234574,37.2338371276855,-119.493647,-119.494003295898,1,NA,"Sawmill",1,NA
133,"Sierra Mountain Mills         ","1","Regular             ","1","Merchantable   ","N","N",39.423957824707,-121.066337585449,"Closed",0,1995,NA,"Logs",NA,NA,"North San Juan","CA",39.424094,39.423957824707,-121.066485,-121.066337585449,1,NA,"Sawmill",1,NA
134,"Sierra Mountain Mills         ","1","Regular             ","1","Merchantable   ","N","N",39.4248199462891,-121.06664276123,"Closed",0,1996,NA,"Logs","Lumber",NA,"North San Juan/Camptonville","CA",39.424614,39.4248199462891,-121.066995,-121.06664276123,1,NA,"Sawmill",1,NA
135,"American Forest Products/Bendi","1","Regular             ","1","Merchantable   ","N","N",37.3310470581055,-119.658142089844,"Closed",0,1982,NA,"Logs",NA,NA,"Oakhurst","CA",37.331078,37.3310470581055,-119.658176,-119.658142089844,1,NA,"Sawmill",1,NA
136,"Wetsel-Oviatt Lumber          ","1","Regular             ","1","Merchantable   ","N","N",38.580696105957,-120.56566619873,"Closed",0,1974,NA,"Logs",NA,NA,"Omo Ranch","CA",38.581136,38.580696105957,-120.565476,-120.56566619873,1,NA,"Sawmill",1,NA
139,"Bald Knob Land & Timber Co.   ","1","Regular             ","1","Merchantable   ","N","N",39.4918403625488,-121.563606262207,"Closed",0,1992,"Cornett Lumber Company","Logs","Lumber",NA,"Oroville","CA",39.492119,39.4918403625488,-121.563359,-121.563606262207,1,NA,"Sawmill",1,NA
140,"Cal Oak Lumber                ","1","Regular             ","1","Merchantable   ","N","N",39.4925498962402,-121.560211181641,"Closed",0,1983,NA,"Logs",NA,NA,"Oroville","CA",39.493489,39.4925498962402,-121.559577,-121.560211181641,1,NA,"Sawmill",1,NA
141,"Diamond International (Orovill","1","Regular             ","1","Merchantable   ","N","N",39.495044708252,-121.565979003906,"Closed",0,1983,NA,"Logs",NA,NA,"Oroville","CA",39.494864,39.495044708252,-121.565478,-121.565979003906,1,NA,"Sawmill",1,NA
142,"J. W. Bamford Inc. (Apex)     ","1","Regular             ","1","Merchantable   ","N","N",39.4616432189941,-121.557525634766,"Closed",0,2002,NA,"Logs","Lumber",NA,"Oroville","CA",39.461387,39.4616432189941,-121.556893,-121.557525634766,1,NA,"Sawmill",1,NA
143,"Louisiana Pacific(Oroville)   ","1","Regular             ","1","Merchantable   ","N","N",39.4726486206055,-121.571250915527,"Closed",0,1993,NA,"Logs","Lumber",NA,"Oroville","CA",39.473057,39.4726486206055,-121.57134,-121.571250915527,1,NA,"Sawmill",1,NA
144,"SPI Oroville Sawmill          ","1","Regular             ","1","Merchantable   ","N","N",39.4799461364746,-121.562942504883,"Closed",0,1987,NA,"Logs",NA,NA,"Oroville","CA",39.480487,39.4799461364746,-121.56114,-121.562942504883,1,NA,"Sawmill",1,NA
146,"Crane Mills                   ","1","Regular             ","1","Merchantable   ","N","N",39.8859519958496,-122.540878295898,"closed",0,1993,NA,"Logs","Lumber",NA,"Paskenta","CA",39.885429,39.8859519958496,-122.541257,-122.540878295898,1,NA,"Sawmill",1,NA
147,"Philo Lumber (Philo)          ","1","Regular             ","1","Merchantable   ","N","N",39.0637664794922,-123.438896179199,"Closed",0,1987,NA,"Logs",NA,NA,"Philo","CA",39.063991,39.0637664794922,-123.439141,-123.438896179199,1,NA,"Sawmill",1,NA
148,"Redwood Empire Philo Sawmill  ","1","Regular             ","1","Merchantable   ","N","N",39.0666809082031,-123.442459106445,"Closed",0,1995,NA,"Logs","Lumber",NA,"Philo","CA",39.066464,39.0666809082031,-123.442657,-123.442459106445,1,NA,"Sawmill",1,NA
149,"Coombs Lumber                 ","1","Regular             ","1","Merchantable   ","N","N",39.9649276733398,-123.797103881836,"Closed",0,1974,NA,"Logs",NA,NA,"Piercy","CA",39.964841,39.9649276733398,-123.796843,-123.797103881836,1,NA,"Sawmill",1,NA
150,"P&M Pioneer Mill              ","1","Regular             ","1","Merchantable   ","N","N",38.4458084106445,-120.530197143555,"Closed",0,2000,NA,"Logs","Lumber",NA,"Pioneer","CA",38.445875,38.4458084106445,-120.529679,-120.530197143555,1,NA,"Sawmill",1,NA
151,"Cornett Lumber Company        ","1","Regular             ","1","Merchantable   ","N","N",38.7384948730469,-120.755760192871,"Closed",0,1991,NA,"Logs","Lumber",NA,"Placerville/Smith Flat","CA",38.737954,38.7384948730469,-120.754462,-120.755760192871,1,NA,"Sawmill",1,NA
152,"Louisiana Pacific             ","1","Regular             ","1","Merchantable   ","N","N",41.2011680603027,-121.685653686523,"Closed",0,1977,"Cheney-Grant Lumber","Logs",NA,NA,"Pondosa","CA",41.201179,41.2011680603027,-121.686068,-121.685653686523,1,NA,"Sawmill",1,NA
153,"Louisiana Pacific Potter Valle","1","Regular             ","1","Merchantable   ","N","N",39.3807182312012,-123.105583190918,"Closed",0,1990,NA,"Logs","Lumber",NA,"Potter Valley","CA",39.380906,39.3807182312012,-123.106023,-123.105583190918,1,NA,"Sawmill",1,NA
154,"Siskiyou Plumas Lumber        ","1","Regular             ","1","Merchantable   ","N","N",39.9418601989746,-120.915092468262,"Closed",0,1996,NA,"Logs","Lumber",NA,"Quincy","CA",39.941512,39.9418601989746,-120.915373,-120.915092468262,1,NA,"Sawmill",1,NA
156,"Louisiana Pacific (Red Bluff) ","1","Regular             ","1","Merchantable   ","N","N",40.1339988708496,-122.203102111816,"Closed",0,1991,NA,"Logs","Lumber",NA,"Red Bluff","CA",40.133429,40.1339988708496,-122.202967,-122.203102111816,1,NA,"Sawmill",1,NA
157,"Roseburg Forest Products *    ","1","Regular             ","1","Merchantable   ","N","N",40.1658058166504,-122.232276916504,"Closed",0,1991,"Diamond Lands","Logs","Lumber",NA,"Red Bluff","CA",40.165498,40.1658058166504,-122.231812,-122.232276916504,1,NA,"Sawmill",1,NA
159,"Eel River (Redcrest)          ","1","Regular             ","1","Merchantable   ","N","N",40.3974990844727,-123.940773010254,"Closed",0,2001,NA,"Logs","Lumber",NA,"Redcrest","CA",40.397451,40.3974990844727,-123.940738,-123.940773010254,1,NA,"Sawmill",1,NA
160,"Butler Forest Products        ","1","Regular             ","1","Merchantable   ","N","N",40.5006065368652,-122.450302124023,"Closed",0,1997,NA,"Logs","Lumber",NA,"Redding","CA",40.500658,40.5006065368652,-122.450707,-122.450302124023,1,NA,"Sawmill",1,NA
161,"Heron Mills                   ","1","Regular             ","1","Merchantable   ","N","N",40.5874137878418,-122.391716003418,"Closed",0,1975,NA,"Logs",NA,NA,"Redding","CA",40.587103,40.5874137878418,-122.3915,-122.391716003418,1,NA,"Sawmill",1,NA
162,"Redding Power                 ","1","Regular             ","1","Merchantable   ","N","N",40.5101661682129,-122.423004150391,"Closed",0,1992,NA,"Logs","Lumber",NA,"Redding","CA",40.509517,40.5101661682129,-122.424433,-122.423004150391,1,NA,"Sawmill",1,NA
163,"Wisconsin-California          ","1","Regular             ","1","Merchantable   ","N","N",40.5029144287109,-122.374458312988,"Closed",0,2003,NA,"Logs","Lumber",NA,"Redding","CA",40.503613,40.5029144287109,-122.374736,-122.374458312988,1,NA,"Sawmill",1,NA
164,"Golden Bear Forest Products   ","1","Regular             ","1","Merchantable   ","N","N",34.0885467529297,-117.19172668457,"Closed",0,1987,"Big Bear Timber Company","Logs",NA,NA,"Redlands","CA",34.088776,34.0885467529297,-117.189339,-117.19172668457,1,NA,"Sawmill",1,NA
165,"Hamson Lumber Company         ","1","Regular             ","1","Merchantable   ","N","N",39.2690048217773,-123.222358703613,"Closed",0,1980,NA,"Logs",NA,NA,"Redwood Valley","CA",39.269241,39.2690048217773,-123.222445,-123.222358703613,1,NA,"Sawmill",1,NA
169,"Carolina California Plywood (S","1","Regular             ","1","Merchantable   ","N","N",40.8845405578613,-123.599784851074,"Closed",0,1977,NA,"Logs",NA,NA,"Salyer","CA",40.884553,40.8845405578613,-123.600023,-123.599784851074,1,NA,"Sawmill",1,NA
171,"Beaver Lumber                 ","1","Regular             ","1","Merchantable   ","N","N",37.3602256774902,-121.943405151367,"Closed",0,1976,NA,"Logs",NA,NA,"Santa Clara","CA",37.360778,37.3602256774902,-121.94316,-121.943405151367,1,NA,"Sawmill",1,NA
172,"Holstrom Lumber               ","1","Regular             ","1","Merchantable   ","N","N",39.6246604919434,-120.435699462891,"Closed",0,1987,NA,"Logs",NA,NA,"Sattley","CA",39.624336,39.6246604919434,-120.435078,-120.435699462891,1,NA,"Sawmill",1,NA
173,"Sonoma Pacific                ","1","Regular             ","1","Merchantable   ","N","N",38.2456550598145,-122.445152282715,"Closed",0,1987,NA,"Logs",NA,NA,"Schellville","CA",38.245964,38.2456550598145,-122.445181,-122.445152282715,1,NA,"Sawmill",1,NA
175,"Holmes Lumber Company         ","1","Regular             ","1","Merchantable   ","N","N",37.047737121582,-122.032508850098,"Closed",0,1979,"Standard Lumber Mills","Logs",NA,NA,"Scotts Valley","CA",37.047871,37.047737121582,-122.031879,-122.032508850098,1,NA,"Sawmill",1,NA
177,"Diebold Mills                 ","1","Regular             ","1","Merchantable   ","N","N",41.7904853820801,-124.187744140625,"Closed",0,1971,NA,"Logs",NA,NA,"Smith River","CA",41.790809,41.7904853820801,-124.187742,-124.187744140625,1,NA,"Sawmill",1,NA
178,"Simonson Lumber-Logging Compan","1","Regular             ","1","Merchantable   ","N","N",41.9270324707031,-124.141593933105,"Closed",0,1983,NA,"Logs",NA,NA,"Smith River","CA",41.92688,41.9270324707031,-124.14166,-124.141593933105,1,NA,"Sawmill",1,NA
179,"Placerville Lumber Company    ","1","Regular             ","1","Merchantable   ","N","N",38.7383232116699,-120.752098083496,"Closed",0,1972,NA,"Logs",NA,NA,"Smithflat","CA",38.738067,38.7383232116699,-120.752848,-120.752098083496,1,NA,"Sawmill",1,NA
180,"Redwood Empire                ","1","Regular             ","1","Merchantable   ","N","N",36.4162216186523,-121.316139221191,"Closed",0,1992,"Sequoia Forest Products","Logs","Lumber",NA,"Soledad","CA",36.416918,36.4162216186523,-121.315902,-121.316139221191,1,NA,"Sawmill",1,NA
181,"Deutschman Lumber Co.         ","1","Regular             ","1","Merchantable   ","N","N",38.0028839111328,-120.263069152832,"Closed",0,1999,NA,"Logs","Lumber",NA,"Sonora","CA",38.002344,38.0028839111328,-120.263451,-120.263069152832,1,NA,"Sawmill",1,NA
182,"Hatler and Company- Vernon E. ","1","Regular             ","1","Merchantable   ","N","N",38.0435371398926,-120.344520568848,"Closed",0,1986,NA,"Logs",NA,NA,"Sonora","CA",38.043786,38.0435371398926,-120.344941,-120.344520568848,1,NA,"Sawmill",1,NA
183,"Whitt Manufacturing Company   ","1","Regular             ","1","Merchantable   ","N","N",37.9716262817383,-120.376098632812,"Closed",0,1987,NA,"Logs",NA,NA,"Sonora","CA",37.971532,37.9716262817383,-120.374556,-120.376098632812,1,NA,"Sawmill",1,NA
185,"Diamond National (Stirling Cit","1","Regular             ","1","Merchantable   ","N","N",39.905632019043,-121.523498535156,"Closed",0,1975,NA,"Logs",NA,NA,"Stirling City","CA",39.905759,39.905632019043,-121.524087,-121.523498535156,1,NA,"Sawmill",1,NA
187,"Coin Lumber                   ","1","Regular             ","1","Merchantable   ","N","N",40.4017143249512,-120.621795654297,"Closed",0,1980,"Susanville Lumber","Logs",NA,NA,"Susanville","CA",40.401479,40.4017143249512,-120.621615,-120.621795654297,1,NA,"Sawmill",1,NA
188,"Paul Bunyan Lumber (Susanville","1","Regular             ","1","Merchantable   ","N","N",40.4121437072754,-120.638999938965,"Closed",0,1972,NA,"Logs",NA,NA,"Susanville","CA",40.412303,40.4121437072754,-120.639541,-120.638999938965,1,NA,"Sawmill",1,NA
189,"SPI Susanville Sawmill        ","1","Regular             ","1","Merchantable   ","N","N",40.4083557128906,-120.648727416992,"Closed",0,2005,NA,"Logs","Lumber",NA,"Susanville","CA",40.408382,40.4083557128906,-120.648294,-120.648727416992,1,NA,"Sawmill",1,NA
190,"Susanville Forest Products    ","1","Regular             ","1","Merchantable   ","N","N",40.3997611999512,-120.622337341309,"Closed",0,1994,NA,"Logs","Lumber",NA,"Susanville","CA",40.40031,40.3997611999512,-120.622419,-120.622337341309,1,NA,"Sawmill",1,NA
192,"Yancey Lumber Company         ","1","Regular             ","1","Merchantable   ","N","N",37.0205535888672,-119.399833679199,"Closed",0,1974,NA,"Logs",NA,NA,"Tollhouse","CA",37.021679,37.0205535888672,-119.401732,-119.399833679199,1,NA,"Sawmill",1,NA
193,"Louisiana Pacific (Trinidad)  ","1","Regular             ","1","Merchantable   ","N","N",41.1495475769043,-124.101524353027,"Closed",0,1999,"Hammond Lumber Company","Logs","Lumber",NA,"Trinidad","CA",41.149698,41.1495475769043,-124.102111,-124.101524353027,1,NA,"Sawmill",1,NA
194,"Louisiana Pacific (Truckee)   ","1","Regular             ","1","Merchantable   ","N","N",39.3304672241211,-120.180541992188,"Closed",0,1990,"Fibreboard","Logs","Lumber",NA,"Truckee","CA",39.330244,39.3304672241211,-120.180058,-120.180541992188,1,NA,"Sawmill",1,NA
195,"Lampe Lumber                  ","1","Regular             ","1","Merchantable   ","N","N",36.1950836181641,-119.343826293945,"Closed",0,1972,NA,"Logs",NA,NA,"Tulare","CA",36.194776,36.1950836181641,-119.343654,-119.343826293945,1,NA,"Sawmill",1,NA
196,"Snider Lumber                 ","1","Regular             ","1","Merchantable   ","N","N",37.4899520874023,-120.845069885254,"Closed",0,1993,"Snider Lumber","Logs","Lumber",NA,"Turlock","CA",37.489468,37.4899520874023,-120.845266,-120.845069885254,1,NA,"Sawmill",1,NA
197,"High Sierra Pine Mills        ","1","Regular             ","1","Merchantable   ","N","N",40.0231704711914,-121.06519317627,"Closed",0,1971,NA,"Logs",NA,NA,"Twain","CA",40.023359,40.0231704711914,-121.06528,-121.06519317627,1,NA,"Sawmill",1,NA
198,"Twin Peaks Timber Products    ","1","Regular             ","1","Merchantable   ","N","N",34.251766204834,-117.241485595703,"Closed",0,1983,NA,"Logs",NA,NA,"Twin Peaks","CA",34.252006,34.251766204834,-117.24117,-117.241485595703,1,NA,"Sawmill",1,NA
199,"Georgia Pacific (Ukiah)       ","1","Regular             ","1","Merchantable   ","N","N",39.1846656799316,-123.204444885254,"Closed",0,1974,NA,"Logs",NA,NA,"Ukiah","CA",39.184984,39.1846656799316,-123.204469,-123.204444885254,1,NA,"Sawmill",1,NA
200,"Hollow Tree Lumber            ","1","Regular             ","1","Merchantable   ","N","N",39.1780128479004,-123.229888916016,"Closed",0,1974,NA,"Logs",NA,NA,"Ukiah","CA",39.17842,39.1780128479004,-123.230076,-123.229888916016,1,NA,"Sawmill",1,NA
201,"Masonite ( Ukiah)             ","1","Regular             ","1","Merchantable   ","N","N",39.1739921569824,-123.206420898438,"Closed",0,0,NA,"Logs",NA,NA,"Ukiah","CA",39.173757,39.1739921569824,-123.206264,-123.206420898438,1,NA,"Sawmill",1,NA
205,"Snyder Lumber                 ","1","Regular             ","1","Merchantable   ","N","N",38.193962097168,-120.977478027344,"Closed",0,1987,NA,"Logs",NA,NA,"Wallace","CA",38.194106,38.193962097168,-120.977912,-120.977478027344,1,NA,"Sawmill",1,NA
206,"Schmidbauer Lumber            ","1","Regular             ","1","Merchantable   ","N","N",40.724723815918,-122.931091308594,"Closed",0,1987,NA,"Logs",NA,NA,"Weaverville","CA",40.725091,40.724723815918,-122.93143,-122.931091308594,1,NA,"Sawmill",1,NA
213,"Kimberly-Clark Corporation    ","1","Regular             ","1","Merchantable   ","N","N",40.385799407959,-123.064582824707,"Closed",0,1978,NA,"Logs",NA,NA,"Wildwood","CA",40.38581,40.385799407959,-123.064106,-123.064582824707,1,NA,"Sawmill",1,NA
214,"Harwood (Willits Mill)        ","1","Regular             ","1","Merchantable   ","N","N",39.403377532959,-123.361122131348,"Closed",0,1988,NA,"Logs","Lumber",NA,"Willits","CA",39.402908,39.403377532959,-123.360812,-123.361122131348,1,NA,"Sawmill",1,NA
215,"Louisiana Pacific             ","1","Regular             ","1","Merchantable   ","N","N",39.4496688842773,-123.349784851074,"Closed",0,1997,NA,"Logs","Lumber",NA,"Willits","CA",39.450394,39.4496688842773,-123.350192,-123.349784851074,1,NA,"Sawmill",1,NA
217,"Pilot Lumber                  ","1","Regular             ","1","Merchantable   ","N","N",40.943920135498,-123.626083374023,"Closed",0,1991,NA,"Logs","Lumber",NA,"Willow Creek","CA",40.942856,40.943920135498,-123.626234,-123.626083374023,1,NA,"Sawmill",1,NA
218,"American Forest Products (Wils","1","Regular             ","1","Merchantable   ","N","N",38.3796005249023,-120.529067993164,"Closed",0,1971,NA,"Logs",NA,NA,"Wilseyville","CA",38.379808,38.3796005249023,-120.529139,-120.529067993164,1,NA,"Sawmill",1,NA
219,"Windsor Mill                  ","1","Regular             ","1","Merchantable   ","N","N",38.542911529541,-122.812164306641,"Closed",0,1987,NA,"Logs",NA,NA,"Windsor","CA",38.543215,38.542911529541,-122.812538,-122.812164306641,1,NA,"Sawmill",1,NA
220,"Pine Mountain Lumber          ","1","Regular             ","1","Merchantable   ","N","N",41.7157974243164,-122.633941650391,"Closed",0,1987,NA,"Logs",NA,NA,"Yreka","CA",41.715588,41.7157974243164,-122.63428,-122.633941650391,1,NA,"Sawmill",1,NA
221,"Sharp Lumber                  ","1","Regular             ","1","Merchantable   ","N","N",41.7086791992188,-122.632423400879,"Closed",0,1972,NA,"Logs",NA,NA,"Yreka","CA",41.708698,41.7086791992188,-122.632487,-122.632423400879,1,NA,"Sawmill",1,NA
222,"SPI Siskiyou Sawmill          ","1","Regular             ","1","Merchantable   ","N","N",41.732666015625,-122.593894958496,"Closed",0,1976,NA,"Logs",NA,NA,"Yreka","CA",41.732535,41.732666015625,-122.59341,-122.593894958496,1,NA,"Sawmill",1,NA
226,"Sound Stud Sawmill            ","1","Regular             ","1","Merchantable   ","N","N",40.4849891662598,-122.34538269043,"Closed",0,2009,"Sound Stud Sawmill Anderson- CA","Logs","Lumber","Douglas-fir- Ponderosa Pine- Hemlock","Yuba City","CA",40.484703,40.4849891662598,-122.345292,-122.34538269043,1,NA,"Sawmill",1,NA
31,"Harwood Products (Branscomb)  ","1","Regular             ","1","Merchantable   ","N","N",39.6541481018066,-123.627143859863,"Liquidated",0,2008,"Harwood Forest Products- Branscomb- CA","Logs","Lumber","Redwood- Douglas-fir- Hemlock","Branscomb","CA",39.65411548,39.6541481018066,-123.6269559,-123.627143859863,1,NA,"Sawmill",1,NA
137,"California Redwood Company (Or","1","Regular             ","1","Merchantable   ","N","N",41.2924041748047,-124.051971435547,"Liquidated",0,2009,"Arcata Forest Products Arcata Redwood Company Simpson Timber","Logs","Lumber",NA,"Orick","CA",41.29238545,41.2924041748047,-124.0517323,-124.051971435547,1,NA,"Sawmill",1,NA
73,"Commander Lumber Co.          ","1","Regular             ","1","Merchantable   ","N","N",39.5871047973633,-122.540489196777,"Unknown",0,0,NA,"Logs","Lumber",NA,"Elk Creek","CA",39.587495,39.5871047973633,-122.540479,-122.540489196777,1,NA,"Sawmill",1,NA
167,"Mallad Creek Shavings/Pellets ","1","Regular             ","2","Energy         ","Y","N",38.8095016479492,-121.318618774414,"Open",1,0,NA,"Chips","Shavings&Pellets",NA,"Rocklin","CA",38.80935591,38.8095016479492,-121.3173498,-121.318618774414,1,NA,"Shavings- Pellet Mill",2,NA
18,"Almquist Lumber Co            ","1","Regular             ","1","Merchantable   ","Y","N",40.9115829467773,-124.068183898926,"Open",1,0,NA,"Logs","Lumber","Hardwood","Arcata","CA",40.911424,40.9115829467773,-124.067932,-124.068183898926,1,NA,"Small Production Mill",1,NA
227,"Unity Forest Products         ","1","Regular             ","1","Merchantable   ","Y","N",39.1119575500488,-121.609436035156,"Open",1,0,NA,"Logs",NA,NA,"Yuba City","CA",39.112056,39.1119575500488,-121.608451,-121.609436035156,1,NA,"Small Production Mill",1,NA
125,"Terra Mai                     ","1","Regular             ","1","Merchantable   ","N","N",41.2636260986328,-122.117393493652,"Closed",0,1998,"Jefferson Lumber Company","Logs","Lumber",NA,"McCloud","CA",41.263896,41.2636260986328,-122.117614,-122.117393493652,1,NA,"Small Production Mill",1,NA
71,"El Dorado Northern Corp       ","1","Regular             ","1","Merchantable   ","N","N",38.6796226501465,-120.84464263916,"Inactive",0,0,NA,"Logs","Lumber",NA,"El Dorado","CA",38.680212,38.6796226501465,-120.844795,-120.84464263916,1,NA,"Small Production Mill",1,NA
208,"Roseburg Forest Products Venee","1","Regular             ","3","Both           ","Y","N",41.4322662353516,-122.379615783691,"Open",1,0,"Roseburg Forest Products","Logs","Veneer",NA,"Weed","CA",41.43245271,41.4322662353516,-122.3794955,-122.379615783691,1,NA,"Veneer",3,NA
209,"Boise Wood Products Veneer/LVL","1","Regular             ","3","Both           ","Y","N",42.4299087524414,-122.851570129395,"Open",1,0,NA,"Logs","Veneer",NA,"White City","OR",42.430189,42.4299087524414,-122.852102,-122.851570129395,1,NA,"Veneer",3,NA
211,"Murphy Softwood Veneer Plant  ","1","Regular             ","3","Both           ","Y","N",42.4340667724609,-122.85831451416,"Open",1,0,NA,"Logs","Veneer","DF- WF","White City","OR",42.433787,42.4340667724609,-122.858651,-122.85831451416,1,NA,"Veneer",3,NA
225,"Timber Products Veneer Mill   ","1","Regular             ","3","Both           ","Y","N",41.7374534606934,-122.593238830566,"Open",1,0,"Timber Products Co","Logs","Veneer","DF- WF Shasta RF- pine and other. No IC.","Yreka","CA",41.737758,41.7374534606934,-122.593349,-122.593238830566,1,NA,"Veneer",3,NA
109,"Columbia Forest Products Plywo","1","Regular             ","3","Both           ","Y","N",42.1794281005859,-121.799842834473,"Open",1,0,NA,"Logs","Veneer and Hardwood Plywood","WF- Hybrid Poplar- Hardwood Face Veneers","Klamath Falls","OR",42.1796987,42.1794281005859,-121.8005483,-121.799842834473,1,NA,"Veneer and Hardwood Plywood",3,NA
104,"California Wood Shavings      ","1","Regular             ","3","Both           ","Y","N",37.8388557434082,-120.502128601074,"Open",1,0,"California Wood Shavings","Logs","Shavings","pine","Jamestown","CA",37.83896858,37.8388557434082,-120.5037001,-120.502128601074,1,NA,"Whole Log Shaver",3,NA
